Company Name,UPIC,PPAI,PPAI Credit,ESPA,PS,State,Name,E-mail Address,Website,Company Type,Business Description,Line Names,Products,Phone Number,Toll Free,FAX,Toll Free FAX,General E-mail Address,Primary Contact,Company Websites,Mailing,Shipping,Billing,Primary Contact Email Address
"Cavan Specialty Advertising, Ltd.",cavansp,I am PPAI,,,,ON,"GILHOOLY, KEVIN",info@cavanadv.com,,Distributor,we specialize in ethically and or union made products and services.,,,416-686-6265,,,,,"Gilhooly, Kevin",,"47Lesmill Road
Toronto, ON M3B 2T8
Canada",,,info@cavanadv.com
"Admar Promotions Group, Inc.",ADMA8591,I am PPAI,,,,ON,"SPIEGELMAN, GRANT",grant@admar.ca,http://www.admar.ca/,Distributor,"Distributor/ importer of ADvertising specilaty, premium/incentive items.",,,416-650-9988,,416-650-0136,,,"Spiegelman, Grant",www.admar.ca,"920 Alness St #104
North York, ON M3J 2H7
Canada",,,grant@admar.ca
Globe Awards & Promotions,Globe836,I am PPAI,PPAI Credit Services,,,ON,"PELCHAT, MICHELINE",sales@globecanada.com,http://www.globecanada.com/,Distributor,No Description On File,,,613-234-4440,800-564-5623,613-234-5501,,,"Pelchat, Micheline",www.globecanada.com,"409 Bronson Avenue
Ottawa, ON K1R 6J5
Canada",Same As Mailing Address,"409 Bronson Ave
Ottawa, ON K1R 6J5
Canada",sales@globecanada.com
CAPITAL PROMOTIONS,bugbear,I am PPAI,,,,ON,"POLLAK, AARON",aaron@capitalpromos.com,http://www.capitalpromos.com/,International Distributor,Promotional Products Distributor and Consultancy,,,905-307-1967,,905-307-1970,,,"Pollak, Aaron",www.capitalpromos.com,"75 East Beaver Creek Road
Unit 12
Richmond Hill, ON L4B 1B8
Canada",,,aaron@capitalpromos.com
The Marco Corporation,marco1,I am PPAI,,,,ON,"JOHNSON, JOHN",JJohnson@TheMarcoCorporation.com,http://www.themarcocorporation.com/,International Distributor,,,,(519) 751-2227 x 288,,519-751-0561,,,"Johnson, John",www.themarcocorporatio...,"470 Hardy Rd
Brantford, ON N3V 6T1
Canada",,,JJohnson@TheMarcoCorporation.com
Promotions By Why-Steria,Steria,I am PPAI,,,,ON,"DESILVA, TRACY",tracy@why-steria.com,http://www.why-steria.com/,Distributor,,,,416-571-8906,,,,,"DeSilva, Tracy",www.why-steria.com,"237-1822 Whites Road North
Pickering, ON L1V 0B1
Canada",,,tracy@why-steria.com
47th Street Promotions,47th,I am PPAI,,,,ON,"SYED, AMEEN",,,Distributor,No Description On File,,,514-962-0575,,,,,"Syed, Ameen",,"1500 Bank Street #434
Ottawa, ON K1H 1B8
Canada",,,
Extreme Adventure Promotions Inc,E485296,I am PPAI,,,,ON,"DALKE, DARRYL",darryl@extremeadventurepromotions.com,,Distributor,No Description On File,,,519-885-3000,,,,,"Dalke, Darryl",,"554 Sandbanks Cres
Waterloo, ON N2V 2K2
Canada",,,darryl@extremeadventurepromotions.com
StickerYou,7842537,I am PPAI,,,,ON,"KUMAR, KRISHNA",krishna@stickeryou.com,http://www.stickeryou.com/,Supplier,StickerYou is the best custom sticker platform in the world. It’s a flexible and easy-to-use online technology distributors to create their own high-quality vinyl stickers. StickerYou offers the ultimate freedom for those looking to create stickers with our freeform die-cut sticker printing technology. StickerYou offers a simple web-interface that allows distributors to order custom stickers. StickerYou works with the world's biggest brands to deliver high quality Stickers.,"Custom Vinyl Stickers,Custom Address Labels,Name Stickers,bumper stickers","Labels
Vinyl Products
Stickers
Vinyl Letters
",(877) 437-8825 x309,877-437-8825,,,,"Kumar, Krishna",www.stickeryou.com,"219 Dufferin St
Ste 6A
Toronto, ON M6K 3J1
Canada",,,krishna@stickeryou.com
A2Z Branding Inc.,A496362,I am PPAI,,,,ON,"ROJDA, PATRYCJA",sales@a2zbranding.ca,,Distributor,No Description On File,,,905-997-0927,,,,,"Rojda, Patrycja",,"10 Kingsbridge Garden Circle #704
Mississauga, ON L5R 3K6
Canada",,,sales@a2zbranding.ca
Score Promotions,SCORE77,I am PPAI,,,,ON,"GREENBERG, TOM",tom@scorepromotions.com,http://www.scorepromotions.com/,Distributor,,,,,,,,,"Greenberg, Tom",www.scorepromotions.com,"77 Martin Ross Avenue
Toronto, ON M3J 2L5
Canada",,,tom@scorepromotions.com
Ipromoteu/Auto Printing Solutions,APS71,I am PPAI,,,,ON,"REHMAN, SHAMS",caspianpharma@gmail.com,http://www.autodealersupply.ca/,Distributor,,,,416-710-6777,,,,,"Rehman, Shams",www.autodealersupply.ca,"106-30 Denton Ave
Scarborough, ON M1L 4P2
Canada",,,caspianpharma@gmail.com
Best Choice Imaging Solutions,B543418,I am PPAI,,,,ON,"THISTLETHWAITE, JOHN",johnt@bciscanada.net,http://www.bciscanada.net/,Distributor,No Description On File,,,866-217-1045,,,,,"Thistlethwaite, John",www.bciscanada.net,"2285 Wyecroft Road
Oakville, ON L6L 5L7
Canada",,,johnt@bciscanada.net
Can-Doo Promotions,C596266,I am PPAI,,,,ON,"PHILLPOT, BILL",info@can-doo.com,http://www.can-doo.com/,Distributor,No Description On File,,,519-759-6460,,,,,"Phillpot, Bill",www.can-doo.com,"9 Oliver Court
Brantford, ON M3T 6M6
Canada",,,info@can-doo.com
G & L Printing and Promotional Services,G608378,I am PPAI,,,,ON,"SMITH, JASON",,http://www.glprintingservices.com/,Distributor,No Description On File,,,519-303-0152,,519-303-0051,,,"Smith, Jason",www.glprintingservices...,"132 Thames Street South
Ingersoll, ON N5C 2T4
Canada",,,
SteelForme Design Inc.,S620152,I am PPAI,,,,ON,"BAHL, CRAIG",craig.bahl@steelforme.com,,Supplier,No Description On File,,,,,,,,"Bahl, Craig",,"15 Brown Ridge Road
#7
Halton Hills, ON L7G 0C6
Canada",,,craig.bahl@steelforme.com
Corporate Confections,C649067,I am PPAI,,,,ON,"WEKSBERG, JAMIE",jamie@corpconfections.com,http://www.corporateconfections.com/,Supplier,No Description On File,,,888-568-5950,,,,,"Weksberg, Jamie",www.corporateconfectio...,"18 LePage Court
Toronto, ON M3J 1Z9
Canada",,,jamie@corpconfections.com
Print Fast,P657388,I am PPAI,,,,ON,"RT, THUSHY",,,Distributor,No Description On File,,,,,,,,"RT, Thushy",,"3-2094 Lawrence Avenue E
Scarborough, ON M1R 2Z6
Canada",,,
Pye's Promotions,P657550,I am PPAI,,,,ON,"PYE, JEFF",jeff.pye@pyespromotions.ca,,Distributor,No Description On File,,,613-312-9395,,,,,"Pye, Jeff",,"354 Stewart Street Unit 1
Renfrew, ON K7V 4H2
Canada",,,jeff.pye@pyespromotions.ca
Everything Embroidered & More,EEAM,I am PPAI,,,,ON,"BERTRAND, CHRISTINA",cbertrand1975@gmail.com,http://www.everythingembroideredandmore.com/,Distributor,No Description On File,,,519-287-9932,,519-287-9932,,,"Bertrand, Christina",www.everythingembroide...,"235 McKellar Street
P.O. Box 1527
Glencoe, ON N0L 1M0
Canada",,,cbertrand1975@gmail.com
McMaster University Campus Store,M678544,I am PPAI,,,,ON,"VAN KOUGHNETT, DENISE",vankoud@mcmaster.ca,,Distributor,No Description On File,,,905-525-9140,,,,,"Van Koughnett, Denise",,"1280 Main Street West
Hamilton, ON L8S 4L8
Canada",,,vankoud@mcmaster.ca
Canada Mostin Trading Corporation,CMTC,I am PPAI,,,,Ontario,"HE, TRACY",,http://www.mostin.ca/,Supplier,No Description On File,,,877-896-3218,,,,,"He, Tracy",www.mostin.ca,"250 Consumers RD Suite 502
North York, Ontario M2J 4V6
Canada",,,
Saksco / Premium Gifts Wholesale,PGW,,,,,ON,"SAHNEY, ASHOK",sunny@saksco.com,http://www.premiumgiftswholesale.com/,International Supplier,No Description On File,,,905-795-9400,,,,,"Sahney, Ashok",www.premiumgiftswholes...,"6221 Kennedy Road
Mississauga, ON L5T 2S8
Canada",,,sunny@saksco.com
"Consumer Testing Technology Co., LTD",714682,I am PPAI,,,,Guangdong,"WANG, ELAINE",huiling.wang@cttlab.com,http://www.cttlab.com/en/,Business Services,"Consumer Testing Technology Co., Ltd (CTT) founded in 2006, is a professional technical service provider for the independent testing, inspection, and auditing of consumer and industrial products, food and farm products, plus environmental safety. With CTT''s experienced technical team and its 200,000 square feet of testing centers, CTT is able to provide effective and professional testing service to the clients. CTT’s Value Proposition Includes: 1.CTT is a trusted partner for many top retailers, brands, importers, and manufacturers across globe. 2.CTT can help you to evaluate material suitability and identify manufacturing related defects in the products. 3.With CTT''s extensive knowledge of product regulations and supply chain management, you can sell your products anywhere with confidence and ensure your consumers remain safe and satisfied. Qualifications: •China National Accreditation Service for Conformity Assessment (CNAS) •China Metrology Accreditation (CMA&CMAF) •China Agri-product Testing Laboratory (CATL) •Accredited lab of US Consumer Product Safety Commission (CPSC)",,"Appliances
Bags-Gift
Bar Products
Bottles-Accessories
Business Casual Attire
China
Diving Equipment
Jewelry-Precious Metal
Luggage
Outdoor Equipment
Shoe Accessories
Swimsuits
Tablecloths
Wood Products
Baby Products
Bags-Leather
Beach Products
Bowls
Camping Equipment
Coffee Makers
Eyeglasses
Leather Products
Mugs
Pillows
Shoes
T-Shirts
Teapots
Bags
Balls
Beauty Products
Brushes-Tooth
Cards-Gift
Dinnerware
Gloves
Light bulbs
Neckwear
Shirts
Sweaters
Table Covers
Underwear
",86076988989888 x915,,,,,"Wang, Elaine",www.cttlab.com/en/,"NO. 7, 4th N. Industry Rd, Songshan Lake
National High-tech Industrial
Dongguan, Guangdong 523808
China",,,huiling.wang@cttlab.com
The John Forsyth Shirt Company Ltd./Arrow Corporate Apparel,FORSYTH,,,,,ON,"COSTELLO, KRISTY",kcostello@forsythshirt.com,http://www.forsythshirt.com/,Supplier,No Description On File,Forsyth of Canada,"Business Casual Attire
Golf-Apparel
Tennis-Apparel
Business Casual Attire - Womens
Shirts
Uniforms
Embroidered Items
Sporting Goods-Apparel
Wearables
",905-362-1400,866-367-7984,866-220-2444,,,"Costello, Kristy",www.forsythshirt.com,"6789 Airport Rd
Toronto, ON L4V 1N2
Canada",,,kcostello@forsythshirt.com
Logo Central,LogoCen,,,,,ON,"LALONDE, FERN",Flalonde@logocentralinc.com,http://www.logocentralinc.com/,International Distributor,,,,613-521-3328,,613-521-2298,,,"Lalonde, Fern",www.logocentralinc.com,"Unit 112- 2700 Lancaster Rd
Ottawa, ON K1B 4T7
Canada",Same As Mailing Address,Same As Mailing Address,Flalonde@logocentralinc.com
Pace Race Wear,pacerace,,,,,ON,"CONLEY, RANDY",,http://www.paceracewear.com/,International Supplier,No Description On File,Pace Race Wear,,416-633-3556,877-633-3556,877-633-2035,877-633-1434,,"Conley, Randy",www.paceracewear.com,"8-265 Rimrock Road
Toronto, ON M3J 3C6
Canada","2900 Service Rd
Niagara Falls, NY 14304
United States",Same As Mailing Address,
"fathomit group, marketing+promotions",fathomit,,,,,ON,"CORMAN, SIMON",scorman@fathomit.com,http://http//www.fathomit.com/,Distributor,"Advertising specialties agency provides incentive and reward programs, customer loyalty and retention programs, SWAG, and strategic merchandising services.",,,905-751-0326,866-720-3101,905-727-7990,,,"CORMAN, SIMON",http://www.fathomit.com/,"372 Hollandview Trail
Suite 300
Aurora, ON L4G 0A5
Canada",Same As Mailing Address,Same As Mailing Address,scorman@fathomit.com
C.R. Designs Ltd.,CRDes,,PPAI Credit Services,,,ON,"OWENS, JEFF",,http://www.crdesignsltd.com/,Supplier,"C.R. Designs is dedicated to bring superb product to ensure the best quality of materials are used and delivered because we understand the true value to recognize a person's personal or professional success. Our brilliant custom to fit style will be worn for years and admired by many. Our 15,000 square foot new facility allows us the ability to offer some of the finest hand crafted jewellery in the world. Our jewellers have over 180 years of experience, our perfection of die cutting technology, and skille",Corporate Recognition Designs Jewelry,"Awards
Jewelry-Cloisonne
Jewelry-Precious Metal
Pins
Belt Buckles
Jewelry-Insignia
Jewelry-Recognition
School/Collegiate Products
Emblems
Jewelry-Other
Lapel Pins
Silver Products
",519-932-1188,888-509-1575,519-932-1187,,,"Owens, Jeff",www.crdesignsltd.com,"406-520 Talbot Street
London, ON N6A 6K4
Canada","12274 County Rd 42
Tecumseh, ON N8N 2M1
Canada",Same As Shipping Address,
"Hyline Promotional Products, Inc",HYPLAST,,,,,ON,"KIDIKIAN, H.J.",,http://www.hylinepromo.com/,Supplier,"We manufacture Vinyl Promotional products and Import Promotional bags. Our processes include; RF sealing, hot stamping, silk screening and embroidering.",HYLINE,"Bags-Other
Binders
Calendars-Desk
Coasters-Plastic
Lunchboxes
Bags-Sport
Briefcases
Calendars-Pocket
Diaries
Portfolios
Bags-Tote
Business Card Products
Clipboards
Luggage Tags-Plastic
Vinyl Products
",416-663-2299,800-361-2711,416-663-9255,,,"Kidikian, H.J.",www.hylinepromo.com,"225 Limestone Crescent
Toronto, ON M3J 2R1
Canada",,,
Aware Marketing Group Ltd.,ICON,,,,,ON,"MORANTZ, CRAIG",,,Supplier,"Drinkware, Books, Tinware, Stationary, Corporate Gifts, Fun Stuff, Stress Toys, Lifestyle Items, Magic Puzzles","Icon Promotional Products, Imports By Icon","Balls-Foam
Bottles-Sport
Clocks-Desk
Games
Key Tags-Plastic
Memo Pad & Paper Hldr
Paperweights-Metal
Pens-Other
Radios
Stuffed Animals
Bar Products
Candles
Containers-Tins
Import-Sourcing Company
Lunchboxes
Mugs-Insulated/Travel
Pens-Ballpoint
Portfolios
Sport Bottles
Toys
Books
Clocks-Alarm
Desk Accessories
Key Tags-Metal
Memo Boards
Mugs-Plastic
Pens-Novelty
Puzzles
Stationery
Weather Instruments
",,,,,,"Morantz, Craig",,"501 Oakdale Rd
Toronto, ON M3N 1W7
Canada",,,
Les Montres (China) Limited,MATSUDA,,,,,ON,"LEUNG, DOMINIC",DOMINIC@MATSUDA.CA,http://www.matsuda.ca/,Supplier,"Professional watch manufacturer specialized in promotional timepieces. Have facilities both in Canada and China. Prices include all taxes and import duties. Shippments are FOB Buffalo, NY. Special items : Golfer's Pocket Watches; Dog Tag; Miniature Desk clocks. All products are under 5 years international warranty. Production lead time is 10 - 14 working days.","Matsuda,Power Of Ideas,OEM,Storm","Clocks
Clocks-Wall
Clocks-Alarm
Electronics
Clocks-Desk
Watches
",,800-269-8666,416-496-0211,,,"Leung, Dominic",www.matsuda.ca,"95 West Beaver Creek Road
Unit 9
Richmond Hil, ON L4B 1H2
Canada",Same As Mailing Address,Same As Mailing Address,DOMINIC@MATSUDA.CA
California Innovations,CALINNOV,,,,,ON,"HUSBAND, TIM",,http://www.californiainnovations.com/,Supplier,"We carry a complete line of soft-sided collapsible coolers, as well as innovative MusiCoolers that have built-in AM/FM radios.","California Innovations,It Just Doesn't Get Any Cooler™,MusiCooler™,It Just Got Cooler!","Coolers
Golf-Accessories
Radios
Electronics
Golf-Other
Food & Beverage Products
Musical Products
",(416) 590-7700 x226,888-413-2665,416-644-0606,,,"Husband, Tim",www.californiainnovati...,"36 Dufflaw Road
Toronto, ON M6A 2W1
Canada",,,
Kempenfelt Promotions,kemp,,,,,ON,"CHARRON, TAMARA",,http://www.kempens.com/,Distributor,,,,,,,,,"Charron, Tamara",www.kempens.com,"Shanty Bay, ON L0L 2L0
Canada",,,
Americazz Sports & Promotions Co Ltd,2903,,,,,ON,"MANN, RAJ",,,Distributor,,,,,,,,,"Mann, Raj",,"10 Bexley Court
Brampton, ON L6W 4B2
Canada",,,
Expressions Emblematic Products,EXPR0001,,,,,ON,"BRAUNSTEIN, NORMAN",,,International Supplier,No Description On File,,"Incentive Programs
",514-745-2525,800-361-3889,514-745-8710,,,"Braunstein, Norman",,"7020 Rue Allard
Lasalle, ON M8Z 2X1
Canada",,,
BrandAlliance Inc,COPI0001,,,,,ON,"FIZER, TRISH",,http://www.brandalliance.com/,Distributor,No Description On File,,,,888-607-5151,905-819-8223,,,"Fizer, Trish",www.brandalliance.com,"10 Roybridge Gate
Suite 202
Woodbridge, ON L4H 3M8
Canada",,,
AdVantages Advertising,ADVANTA1,,,,,ON,"WILSON, KEVIN",sales@advantagesadvertising.com,http://www.advantagesadvertising.com/,International Distributor,Promotional Product distrubutor serving U.S.A. & Canada,,,613-938-8591,,613-938-7039,,,"Wilson, Kevin",www.advantagesadvertis...,"1500 Joyce St
Cornwall, ON K6h 6N7
Canada",,,sales@advantagesadvertising.com
Angel Fish Marketing Communications,ANGE0001,,,,,ON,"FARRAR, NORMAN",,http://www.angelfish.com/,International Distributor,,,,905-738-2466,,905-738-3664,,,"Farrar, Norman",www.angelfish.com,"116 Viceroy Rd., #10-#11, Bldg D
Concord, ON L4K 2M4
Canada",,,
Precidio Inc. (Precisioncraft(TM)),PREC0001,,,,,ON,"YELLAND, WILLIAM",,http:,International Supplier,,,"Acrylic Products
Cups
Mugs-Other
Calendars-Desk
Key Tags-Other
Recycled Plastic Products
Coasters-Other
License Plates/Frames
Rulers
",905-790-0790,800-387-2304,905-790-0791,,,"Yelland, William",,"35 Precidio Ct
Brampton, ON L6S 6B7
Canada",,,
HA-LO Canada Inc.,HALO0001,,,,,ON,"FREED, MARK",,http://www.halo.com/,International Supplier,,,,416-391-9191,,416-494-3028,,,"Freed, Mark",www.halo.com,"707 Gordon Baker Rd
Toronto, ON M2H 2S6
Canada",,,
Executayne Marketing Limited,EXEC0001,,,,,ON,"GALYSH, BETTY",,http:,International Distributor,No Description On File,,,905-845-1923,,905-338-0834,,,"Galysh, Betty",,"603 Argus Rd #112
Oakville, ON L6J 6G6
Canada",,,
Imprints Unlimited,IMPR0003,,,,,ON,"DEAN, GERRY",,,International Distributor,No Description On File,,,,,,,,"Dean, Gerry",,"20722 Vanneck Rd.
London, ON N6H 5L2
Canada",,,
McLoughlin Promotions Ltd.,MCLO0001,,,,,ON,"MCLOUGHLIN, DAVE",,http://www.mclpro.com/,International Distributor,,,,905-238-8973,,905-238-5301,,,"McLoughlin, Dave",www.mclpro.com,"5696 Ambler Dr
Mississauga, ON L4W 2K9
Canada",,,
Penpal Pen Corp.,PENP0001,,,,,ON,"NUSAIR, NABIL",,http:,International Supplier,No Description On File,,,416-293-0354,888-293-0354,416-293-9016,,,"Nusair, Nabil",,"25 Commander Blvd.
Agincourt, ON M1S 3E7
Canada",,,
R & A Enterprises,RANDAENT,,,,,ON,"GOURNIS, RITSA",,http://www.raenterprises.net/,International Distributor,No Description On File,,,416-635-0856,800-268-4789,416-635-5530,,,"Gournis, Ritsa",www.RAenterprises.net,"199 Grandravine Dr.
Downsview, ON M3J 1B8
Canada",,,
M.P. Russo & Associates Inc.,MPRU0001,,,,,ON,"RUSSO, MICHAEL",russo.michael@mprusso.com,http://www.mprusso.com/,International Distributor,No Description On File,,,519-482-9652,888-677-8776,519-482-9667,,,"Russo, Michael",www.mprusso.com,"282 Huron Rd. PO Box 902820
Clinton, ON N0M 1L0
Canada","135 Irwin St
Clinton, ON N0M 1L0
Canada",,russo.michael@mprusso.com
Bruce Thompson Promotions,BRUC0001,,,,,ON,"THOMPSON, BRUCE",,http:,International Distributor,No Description On File,,,,800-201-7891,,,,"Thompson, Bruce",,"87 Grandlea Crescent
Markham, ON L3S 4A3
Canada",,,
Van Smith Marketing,VANS0001,,,,,ON,"LANTEIGNE, DIANE",,http://www.vansmith.com/,International Distributor,No Description On File,,,416-297-1022,800-881-1917,416-297-4702,,,"Lanteigne, Diane",www.vansmith.com,"1361 Huntingwood Dr #1
Toronto, ON M1S 3J1
Canada",,,
"The Willwerth Group, Inc.",WILL0001,,,,,ON,"WILSON, JANICE",,http://www.wagroup.com/,International Distributor,No Description On File,,,519-624-4300,800-263-8178,519-624-1508,,,"Wilson, Janice",www.wagroup.com,"130 Turnbull Ct
Cambridge, ON N1T 1J2
Canada",,,
Elcyda Corporation Limited,ELCYP001,,,,,ON,"HARGRAVE, ROB",,http://www.elcyda.com/,International Supplier,No Description On File,,,905-264-6600,,905-264-6606,,,"Hargrave, Rob",www.elcyda.com,"155 Rowntree Dairy Road Unit #4
Woodbridge, ON L4L 6E1
Canada",,,
"Silver and Company, Inc.",SILVER,,,,,ON,"SILVER, FRED",fsilver@silverandcompany.com,http://www.silverandcompany.com/,International Distributor,No Description On File,,,905-738-4977,,905-738-0700,,,"Silver, Fred",www.silverandcompany.com,"8700 Dufferin St Unit 14 Blg B
Concord, ON L4K 4S2
Canada",,,fsilver@silverandcompany.com
Performance Inc.,PERF8222,,,,,ON,"CONLEY, RANDY",,http://www.performancesolutions.ca/,International Distributor,No Description On File,,,416-633-8084,,416-633-6450,,,"Conley, Randy",www.performancesolutio...,"265 Rimrock Rd., Unit #4
Toronto, ON M3J 3C6
Canada",,,
Williams Insignia & Promotions,WILLIAMS,,,,,ON,"REED, GARY",,,Distributor,,,,416-289-2844,800-481-7966,416-289-7001,,,"Reed, Gary",,"25 Kimbermount Dr
Toronto, ON M1T 2Y1
Canada",,,
Eclipse Advertising Specialties,ECLI0001,,,,,ON,"FERDERBER, WAYNE",,,Distributor,No Description On File,,,,,,,,"Ferderber, Wayne",,"221 Norseman St.
Toronto, ON M8Z 2R5
Canada",,,
"International Trading Design, S.L.",INTE0017,,,,,Barcelona,"CABELLO, TERESA",,http:,International Distributor,,,,011-3438436267,,011-3438436322,,,"Cabello, Teresa",,"Ctra. Granollers-sabadell 14
4 Pi El Pla, Llisa De Vall
Barcelona, Barcelona 08185
Spain",,,
Brushstrokes® Fine Art Inc. (fka Atelier America Inc.),ATEL0001,,,,,ON,"KALEF, RANDY",,http://www.brushstrokesart.com/,Supplier,No Description On File,"Brushstrokes(R),Artscapes(TM),Atelier Fine Art(TM)","Calendars-Desk
Greeting Cards
Plaques-Other
Fulfillment Services
Holiday Goods
Restaurant/Hotel Amenities
Golf-Other
Incentive Programs
Sculptures
",905-201-2555,800-667-2102,905-201-2560,,,"Kalef, Randy",www.brushstrokesart.com,"380 Markland St
Markham, ON L4C 1T6
Canada",,,
BillBoard Sportswear Manufacturing Inc.,BILL0008,,,,,ON,"ORDEL, BRAM",,http://www.billboardsportswear.com/,Supplier,No Description On File,Billboard,"Golf-Apparel
Sweats
Jackets
Sporting Goods-Apparel
",416-488-2256,888-442-1556,416-488-2257,,,"Ordel, Bram",www.billboardsportswea...,"38 Rowanwood Ave.
Toronto, ON M4W 1Y7
Canada",,,
"Results Promotional Marketing, Inc",RESU0004,,,,,ON,"HILLIER, JOANNE",,http:,International Distributor,No Description On File,,,905-824-3772,,905-824-2382,,,"Hillier, Joanne",,"2928 Crosscurrent Dr.
Mississauga, ON L5N 6K4
Canada",,,
Nexus Creative Solutions Inc,FALC0003,,,,,ON,"KANE, LEO",,http://www.falconbis.com/,International Distributor,No Description On File,,,,,,,,"Kane, Leo",www.falconbis.com,"300 Trowers Rd
Unit 2
Vaughan, ON L4L 5Z9
Canada",,,
CJC Marketing & Promotions Inc.,CJCM0001,,,,,ON,"BOURIS, CHRIS",,,International Distributor,No Description On File,,,905-812-9744,,905-812-8684,,,"Bouris, Chris",,"6790 #1 Kitimat Road
Mississauga, ON L5N 5L9
Canada",,,
Turtle Beach Clothing & Promotion,TURT0001,,,,,ON,"FIRTH, BOB",,http://www.12.com/turtlebeach,International Distributor,,,,807-468-4444,,807-468-4954,,,"Firth, Bob",www.12.com/turtlebeach,"Box 1430
Kenora, ON P9N 3X7
Canada","621 Lakeview Dr.
Kenora, ON P9N 3P6
Canada",,
CPS-Carl Piercey Specialties Inc.,CPSC0002,,,,,ON,"PIERCEY, SARAH",,http://www.cpsca.com/,Distributor,,,,416-286-1580,,416-286-1594,,,"Piercey, Sarah",www.cpsca.com,"50 Venture Dr #4 & 5
Toronto, ON M1B 3L6
Canada",,,
Alternate Source,ALTE0002,,,,,ON,"BAXTER, D.",dbaxter@kpromo.com,,Distributor,Full Service Print and Promotional Product Advisor,,,,,,,,"Baxter, D.",,"6085 Starfield Cres
Mississauga, ON L5N 1X2
Canada",,,dbaxter@kpromo.com
Manu International,MANU0002,,,,,Kowloon,"VIDAL, PIERRE-MARIE",,http:,International Supplier,No Description On File,,,011-85223774897,,011-85223774894,,,"Vidal, Pierre-Marie",,"Unit C&d 20/fl. Candy Novelty House
164 Wai Yip Street
Kwun Tong, Kowloon
Hong Kong",,,
Trimark Sportswear Group,TRIMARK,I am PPAI,,,,ON,"HORST, BILL",bill@trimarksportswear.com,http://www.trimarksportswear.com/,Supplier,,,,905-883-7106,800-723-8383,800-668-8605,,bill@trimarksportswear...,"HORST, BILL",www.trimarksportswear.com,"30 Staples Ave
Richmond Hill, ON L4B 4W3
Canada",,,bill@trimarksportswear.com
Country Line Inc.,COUN0003,,,,,ON,"LOBO, ANUJA",countryline@bellnet.ca,http://www.countryline.ca/,International Supplier,"Manufacturers,wholesalers and importers of promotional items, mainly fleece outerwear such as jackets, pullovers, vests, fleece accessories such as hats, scarves, mitts, headbands, neck warmers, blankets, shawls), uniforms such as aprons, vests, labcoats, scrubs, towels, bathrobes, hotel lines such as pillow cases, bed sheets, duvets, vellux blankets, cotton / canvas tote bags, bandanas. We carry over 25 colors for most of our products, and can customize to your customer's requirements.",Country Line,"Apparel
Bags-Other
Beach Products
Coats
Fleece Products - Jackets
Handkerchiefs
Health/Fitness Products
Mats-Floor
Pet Products
Robes
Shirts
Sweaters
Tablecloths
Aprons
Bags-Tote
Blankets
Embroidered Items
Fleece Products - Shirts
Hats
Holiday Goods
Napkins
Pillows
Scarves
Stockings
Table Covers
Uniforms
Bags
Bandannas
Business Casual Attire
Fleece Products - Blankets
Golf-Apparel
Headbands
Jackets
Pants
Restaurant Apparel
School/Collegiate Products
Straps
Table Liners
Wearables
",416-740-3711,800-310-7880,416-740-4294,,countryline@bellnet.ca,"Lobo, Anuja",www.countryline.ca,"Unit 20 - 90 Signet Dr
Toronto, ON M9L 1T5
Canada",,,countryline@bellnet.ca
Spectrum Promotional Marketing,SPEC0044,,,,,ON,"KELLY, SHARON",,http://spectrum-promotional.ca/,International Distributor,"Located in the Capital of Canada, Ottawa, Spectrum's primary target audience is federal government and multi-national companies. Since being founded in 1989, Spectrum concentrates on clients that buy more than $10K per annem. We also currently warehouse inventory for three major clients. many govern",,,613-562-2044,,613-562-2045,,,"Kelly, Sharon",spectrum-promotional.ca,"148 Dalhousie St
Ottawa, ON K1N 7C4
Canada",,,
Maxad Promotional Marketing Inc.,MAXAD,,PPAI Credit Services,,,ON,"MAX, MARK",,,International Distributor,No Description On File,,,,,,,,"Max, Mark",,"477 Elgin St.
Ottawa, ON K2P 2H2
Canada",,,
Peacock Promotions,PEAC0003,,,,,ON,"PEACOCK, DONNA",,http:,International Distributor,No Description On File,,,705-444-5814,,705-444-5777,,,"Peacock, Donna",,"77 6th St
Collingwood, ON L9Y 1Y8
Canada",,,
Norama Design Inc.,NORA0001,,,,,ON,"DI DOMIZIO, JOHN",,http://www.norama.ca/,International Supplier,,,"Wearables
",416-744-6994,800-667-2621,416-744-0113,,,"Di Domizio, John",www.norama.ca,"90, Milvan Drive
Toronto, ON M9L 1Z6
Canada",,,
Add the Logo Inc.,IMP,,,,,ON,"ROSE-CASSIDY, PAULETTE",,http://www.addthelogo.com/,International Distributor,,,,905-882-7792,,905-882-4515,,,"Rose-Cassidy, Paulette",www.addthelogo.com,"115 Olde Towne Place
Thornhill, ON L3T 4K9
Canada",,,
Spiritwear Promotions,SPIR8685,,,,,ON,"SWEITZER, ANGELA",sales@spiritwearpromotions.com,http://www.spiritwearpromotions.com/,Distributor,,,,905-684-6686,,,,,"Sweitzer, Angela",www.spiritwearpromotio...,"410 St. Paul St.
St. Catherines, ON L2R 3N2
Canada",,,sales@spiritwearpromotions.com
H2 Promotions Inc.,HProm141,,,,,ON,"MCMASTER, ANNE",,http://www.h2promotions.com/,Distributor,promotional marketing,,,416-429-9360,,416-429-8933,,,"McMaster, Anne",www.h2promotions.com,"2480 Cawthra Road # 30
Mississauga, ON L5A 2X2
Canada","146 Laird Dr
# 205
Toronto On, ON M4G 3",,
Hilltop Printing & Promotional Products,Hillt718,,,,,ON,"SMITH, K.M.",,http://www.hilltop.ca/,International Other,Online Catalogs with Prices and Pictures.,,,800-207-3415,,905-574-6596,,,"Smith, K.M.",www.hilltop.ca,"158 Hester St #201
Hamilton, ON L9A 2N8
Canada",,,
Spartan Promotions,Spart031,,,,,ON,"DICIANNA, DOMENIC",,http://www.spartanpromotions.com/,Distributor,,,,416-565-8826,,416-593-4540,,,"DiCianna, Domenic",www.spartanpromotions.com,"355 King St W
4th Floor
Toronto, ON M5V 1J6
Canada",,,
Proforma Marketing Images,1943,,,,,ON,"BROWN, BOB",bob.brown@proforma.com,,Distributor,Print and Promotional Products,,,,,,,,"Brown, Bob",,"39 Pooles Rd
Midhurst, ON L0L 1X1
Canada",,,bob.brown@proforma.com
Beardmore Leathers,beard125,,,,,ON,"DAWKINS, JANE",,http://www.beardmoreleathers.com/,International Supplier,Beardmore leathers is dedicated to maintaining a long established tradition of producing fine quality leather garments and accessories offering the best value. Our commitment is to preserve the prestigious Beardmore trademark by adhering to a high standard of excellence focused on total customer satisfaction.,Beardmore Leathers,"Apparel
Boxes
Coasters
Folders
Incentive Programs
Luggage
Wallets
Bags-Garment
Briefcases
Coats
Gloves
Jackets
Luggage Tags-Other
Wearables
Bags-Tote
Business Card Products
Desk Accessories
Golf-Accessories
Leather Products
Portfolios
",x231,,,,,"Dawkins, Jane",www.beardmoreleathers.com,"125 Mcdonald Blvd
Acton, ON L7J 2V7
Canada",Same As Mailing Address,,
Jerico Sportswear,Jeric353,,,,,ON,"MAHER, ZINA",,http://www.jericosport.com/,International Supplier,"A manufacturer using north american yarns, shipping regularly to USA via Niagara Falls, NY. JERICO SPORTSWEAR carries a large inventory of adult, youth & children fleecewear and the hard to find big sizes (4x and 5x). JERICO can also customise & private label, using stock fabrics and colors. For more information, contact Jeanne Cable in Customer Service @ 1-800-668-6443 or visit our website.","JERICO, Magnum-T, Plus-T, Belle-T","Fleece Products - Jackets
Golf-Apparel
Shorts
Uniforms
Fleece Products - Other
Safety Products
Sweats
Fleece Products - Shirts
School/Collegiate Products
T-Shirts
",416-288-0822,,416-288-0833,,,"Maher, Zina",www.jericosport.com,"120 Commander Blvd
Toronto, ON M1S 3H7
Canada",,,
BC Print All,bcprint,,,,,ON,"CARLIN, BRENDA",,http://www.bcprintall.com/,Distributor,Promotional Product Distributor,,,416-220-9370,,905-607-4088,,,"Carlin, Brenda",www.bcprintall.com,"2979 Remea Court
Mississauga, ON L5L 2H6
Canada",,,
Concord Coordinates Inc,CONC8362,,,,,ON,"BURTON, WAYNE",,http://www.concordgarment.com/,Supplier,,Concord,"Business Casual Attire
Christmas Products
Fleece Products - Other
Import-Sourcing Company
Leisure Products
Shirts
T-Shirts
Business Casual Attire - Mens
Fleece Products - Blankets
Fulfillment Services
Jackets
Rain Gear
Sporting Goods-Apparel
Uniforms
Cheering Accessories
Fleece Products - Jackets
Golf-Apparel
Leather Products
School/Collegiate Products
Sweats
",416-438-2323,877-278-8816,416-438-0082,,,"Burton, Wayne",www.concordgarment.com,"841 Progress Ave
Scarborough, ON M1H 2X4
Canada",,,
5001.com,5001com,,,,,ON,"SEREBRENNIKOV, MICHAEL",,http://www.5001.com/,International Distributor,distribution of promotional products,,,416-663-5001,,416-352-5522,,,"Serebrennikov, Michael",www.5001.com,"4697 Bathurst St
Toronto, ON M2R1W7
Canada",,,
Granite Hill Group,187,,,,,ON,"AIKIN, STELLA",,http://www.granitehillgroup.com/,Distributor,"Promotional Marketing Specialists, and Custom Embroidery. We provide Service and Recognition Awards, Health and Safety Programs, Special Event Marketing, New Product Launchs, Sales Incentives and Door Openers, Uniforms, Employee Recognition, Fulfillment and Company Store, Business/Executive Gifts, Giveaway with Purchases, Corporate Brand Awareness.",,,,,,,,"Aikin, Stella",www.granitehillgroup.com,"187 Granite Hill Road
Cambridge, ON N1T 2A6
Canada",,,
Chocolate Signatures Inc,Choco324,,,,,ON,"SMILESTONE, AMY",,http://www.chocsig.com/,Supplier,Custom Belgian Chocolate Manufacturer specializing in Premium & Incentive Market,,,,,,,,"Smilestone, Amy",www.chocsig.com,"920 Caledonia Road
Unit # 1b
Toronto, ON M6B3Y1
Canada",,,
WAC Sportswear Inc.,WAC,,,,,ON,"OMRAN, WALLY",,http://www.wearwac.com/,Supplier,,"Blackstone,Drywear,WAC,WAC Fleece,Weatherwear","Bags-Sport
Business Casual Attire
Children's Products
Fleece Products - Other
Golf-Apparel
Neckwear
Scarves
Sweaters
Wearables
Bags-Tote
Business Casual Attire - Mens
Fleece Products - Blankets
Fleece Products - Shirts
Headbands
Pillows
Sporting Goods-Apparel
Sweats
Wristbands
Blankets
Business Casual Attire - Womens
Fleece Products - Jackets
Golf-Accessories
Mittens
Rain Gear
Straps
Uniforms
",,,905-738-5171,,,"Omran, Wally",www.wearwac.com,"193 Jardin Dr.
Concord, ON L4K 1X5
Canada",,,
creative resource,1312,,,,,ON,"SAWATSKY, KIM",,,Distributor,distributor,,,,,,,,"sawatsky, kim",,"36 Bramoak Cres.
Brampton, ON L7A 1T6
Canada",,,
Impressive Promotions,4435175,,,,,ON,"SALAMONE, TONY",,http://www.21promo.com/,Distributor,promotional sales,,,,,,,,"Salamone, Tony",www.21promo.com,"175 Dawson St. S
Guelph, ON N1H1A1
Canada",,,
northern Exposure Athletic Production Services,6908,,,,,On,"FORDE, EDWARD",edforde76@hotmail.com,http://northernex.ca/,Distributor,The business has a focus on Sports and athletics,courtjeter promotions,,905-540-9862,,,,,"Forde, Edward",northernex.ca,"48 Simcoe Street East
Hamilton, On L8L 3N1
Canada",,,edforde76@hotmail.com
Artifex Design Group,artifex,,,,,ON,"MASTRACCI, VINCE",,http://www.artifexdesign.com/,Distributor,We are a distributor of promotional products and we are a graphic design studio,,,,,,,,"Mastracci, Vince",www.artifexdesign.com,"51 Roysun Rd Unit 1
Woodbridge, ON M9P 1L5
Canada",,,
CreativeSugar,cresug,,,,,ON,"SILVER, MICHAEL",creativesugar@me.com,http://www.creativesugar.com/,Distributor,Promotional Products,,,888-497-8427,,905-940-9761,,,"Silver, Michael",www.creativesugar.com,"391 Steelcase Road West
Unit 24
Markham, ON L3R 3V9
Canada",,,creativesugar@me.com
Dynamic On Line Marketing,domc21,,,,,ON,"BRENKEL, STEPHEN",stephen@domc.net,http://www.domc.net/,Distributor,,,,905-738-9150,,905-738-9667,,,"Brenkel, Stephen",www.domc.net,"241 Applewood Cres, Unit 4
Concord, ON L4K 4E6
Canada",,,stephen@domc.net
The Carli Collection,HATS,,,,,On,"CASHIN, MARK",,,Supplier,"Carli has three primary areas of business. ODH QUALITY HEADWEAR is an importer of headwear with custom minimums as low as 288 pieces with 144 colour splits. ODH also has a blank instock headwear program with a 12 piece minimum. Closures are availble in velcro, self fabric, plastic snap, elastic, fitted, and featuring the ""UNIFIT"". A varity of fabrics such as Cotton twill, brushed cotton, cotton Lycra, canvas, polynosic, terry, micro-fiber, nylon. ODH QUALITY APPAREL has a performance line of close in","ODH Quality Apparel,ODH Quality Headwear,REHANCE PRINT TECHNOLOGY,TRANSPOR Dry Layer,PRO-TEK DRY","Aprons
Caps-Novelty
Golf-Other
Licensed Products
Sporting Goods-Apparel
Business Casual Attire - Mens
Fleece Products - Jackets
Headbands
Rain Gear
T-Shirts
Caps-Ball
Golf-Accessories
Import-Sourcing Company
Shirts
Wearables
",,,905-812-0145,,,"Cashin, Mark",,"2830 Argentia Road
Unit 9
Mississauga, On L5N 8G4
Canada",,,
Promotional Elements Inc.,outstndg,,,,,ON,"HANCOCKS, JACK",jack@promotionalelements.com,http://www.promotionalelements.com/,Distributor,,,,519-894-1508,,519-893-0849,,,"Hancocks, Jack",www.promotionalelement...,"25 Mcintyre Place
Unit 5
Kitchener, ON N2R 1H1
Canada",,,jack@promotionalelements.com
PromOSmart,roklif,,,,,ON,"KIPFER, GARY",,,Distributor,"Promotional Products, Flags,Balloons",,,,,,,,"Kipfer, Gary",,"1635 Sandhills Rd
New Hamburg, ON N3A 3B2
Canada",,,
Red Scarf,rs2929,,,,,ON,"MILO, SCOTT",,http://www.rdscarf.com/,Distributor,"Promotional Premium and Incentives Sales, Marketing,Art services, Event & Trade show planning and support",,,416-781-3622,,,,,"Milo, Scott",www.rdscarf.com,"103-2929 Bathurst St.
Toronto, ON M6B 3B1
Canada",,,
United Marketing Force,WHGRP001,,,,,ON,"SMITH, DAVID",,http://www.unitedmarketingforce.com/,Distributor,Image Pro's. Your one stop promotional destination.,,,,,,,,"Smith, David",www.unitedmarketingfor...,"71 Hamilton St. N
P.O. Box 250
Waterdown, ON L0R 2H0
Canada",,,
Wilson & Wilson,wilwil,,,,,ON,"WILSON, JEFF",jeff@wilson-wilson.ca,http://www.wilson-wilson.ca/,Distributor,Corporate Clothing & Promotional Products,,,519-744-4250,877-778-3967,519-744-3276,,cs@wilson-wilson.ca,"Wilson, Jeff",www.wilson-wilson.ca,"136 Ottawa Street South
Unit 2
Kitchener, ON N2G 3S9
Canada",Same As Mailing Address,,jeff@wilson-wilson.ca
In2itivegroup Inc.,in2itive,,,,,ON,"KENNEDY, JOHN",,http://www.in2itivegroup.com/,Distributor,"Promotional Products Distributor serving Southern Ontario and Western New York,",,,905-353-8444,,905-353-9340,,,"Kennedy, John",www.in2itivegroup.com,"4065 Stanley Avenue
Suites 2 & 3
Niagara Falls, ON L2E 4Z1
Canada",,,
Neiltree Promotions,neiltree,,,,,ON,"MAHONY, WARREN",neiltree@sympatico.ca,,Distributor,Promotional Advertising Distributor,,,416-620-0455,,416-620-7185,,,"Mahony, Warren",,"6 Neiltree Court
Toronto, ON M9C 5C3
Canada",,,neiltree@sympatico.ca
Swyrich Corporation,kingpins,,,,,On,"RICHARDSON, DAVE",,http://www.kingpins.net/,Supplier,"Your Source for Custom Designed Lapel Pins, Coins, Medals and Medallions.",KingPins,"Lapel Pins
Medallions
Pins
",,,,,,"Richardson, Dave",www.kingpins.net,"830 Development Dr
Kingston, On K7M 5V7
Canada",,,
Calculated Incentives Inc.,CALCP002,,,,,ON,"FELDMAN, IAN",,http://www.calculatedincentives.com/,Distributor,No Description On File,,,,,,,,"Feldman, Ian",www.calculatedincentiv...,"121 Limestone Crescent
Toronto, ON M3J 2R1
Canada",,,
Comeo Promotional Products,COMEP001,,,,,ON,"PERROTTE, MEL",,,Distributor,No Description On File,,,519-735-5671,,519-735-3516,,,"Perrotte, Mel",,"1107 Lesperance Rd
Unit 2
Tecumseh, ON N891X1
Canada",,,
Seabrook Associates Promotional Products,SEABP001,,,,,ON,"SEABROOK, MARIE",,http://www.seabrookassociates.com/,Distributor,Distributor for Promotional Products.,,,,,,,,"Seabrook, Marie",www.seabrookassociates...,"232 Herzberg Rd.
Suite 205
Kanata, ON K2K 2A1
Canada",,,
Snap Promotions Inc,20020203,,,,,ON,"LALJI, SHAMEZ",,http://www.snapgroup.ca/,Distributor,"Snap Promotions Inc. - A young and very energetic company focusing on corporate promo and incentive web based programs. Some of our clients include GE Canada, Heinz Canada, Rogers Communications & Toronto Sick Kids Hospital.",,,,,,,,"Lalji, Shamez",www.snapgroup.ca,"35 Primrose Ave
Toronto, ON M6H 3V1
Canada",,,
Heritage Specialties,3204,,,,,ON,"KUDREIKIS, MARY",,http://www.heritagespecialties.ca/,Distributor,distributor of promotional products offering in house embroidery and heat press applications,,,905-641-0300,,905-641-0443,,,"Kudreikis, Mary",www.heritagespecialtie...,"320 Vansickle Road
Unit 4
St. Catharines, ON L2R 6P7
Canada",,,
Disney Sales Promotions,disney,,,,,ON,"EDELIST, JERRY",sales@disneypromotions.com,http://disneysalespromotions.com/,Distributor,Promotional Products and Business Gifts,,,416-635-0933,,,,,"Edelist, Jerry",disneysalespromotions.com,"312 Dolomite Dr., Ste. 218
Toronto, ON M3J 2N2
Canada",,,sales@disneypromotions.com
Falcon Clothing Inc,Falcon2,,,,,ON,"FALCON, COSME",,http://www.bamboowearcanada.com/,International Supplier,"We are a Canadian Custom Manufacturer of Clothing and stock programs, with more than 15 years of experince and expertise in the apparel busines. We commit a great deal of time to understanding our customer and their needs.Our line includes: Golf Shirt, Spring and Fall Jackets, Winter Jackets,and enviroment products made from Bamboo fiber and soy fiber.","Falcon Classic Clothing,Bamboo Wear","Apparel
Blankets
Fleece Products - Jackets
Golf-Apparel
School/Collegiate Products
Sweats
Uniforms
Aprons
Environmental Products
Fleece Products - Other
Incentive Programs
Sporting Goods-Apparel
T-Shirts
Athletic Wear
Fleece Products - Blankets
Fleece Products - Shirts
Scarves
Sportswear
Tennis-Apparel
",,,,,,"Falcon, Cosme",www.bamboowearcanada.com,"19-3895 Doug Leaven Blvd.
Mississauga, ON L5N7G1
Canada",,,
Global Promotions,glob241,,,,,ON,"BUNKER, MICHAEL",,http://www.globalpromotions.ca/,Distributor,,,,(905) 761-8308x240,888-949-3334,905-738-8625,,,"Bunker, Michael",www.globalpromotions.ca,"241 Applewood Cres
Unit 4
Concord, ON L4K 4E6
Canada",,,
1st Impressions Plus,1stIcsw,,,,,ON,"RICE, ROBERT",,http://www.1stimpressplus.com/,International Distributor,Full line promotional product distributor. With complete abilities to source overseas.,,,,,,,,"Rice, Robert",www.1stimpressplus.com,"125 Jeffers Ct
Orangeville, ON L9W4S2
Canada",,,
Natale CNS Ltd.,NCNS,,,,,ON,"NATALE, VICTOR",natale.cns@rogers.com,,International Distributor,"Consulting and Promotional Sales Company located in Guelph, Ontario, Canada","Victor Natale,Laura Natale",,519-827-1657,,519-767-2465,,Natale.cns@rogers.com,"Natale, Victor",,"19 Pine Ridge Drive
Guelph, ON N1L1K3
Canada",,,natale.cns@rogers.com
Wallace Workwear Inc,2500,,,,,ON,"WALLACE, DAN",danwwi@bellnet.ca,http://www.wallaceworkwear.com/,Distributor,,,,905-866-6672,,905-866-5844,,danwwi@bellnet.ca,"Wallace, Dan",www.wallaceworkwear.com,"2 Wilkinson Rd Unit 2
Brampton, ON L6T 4M3
Canada",,,danwwi@bellnet.ca
"D.D. Smith Sales, Ltd.",DDSM0001,,,,,ON,"SMITH, JANICE",,http:,International Distributor,No Description On File,,,905-278-2055,,905-278-1121,,,"Smith, Janice",,"1408 Rometown Dr.
Mississauga, ON L5E 2T4
Canada",,,
Brainstorm Promotions Inc.,9776,,,,,ON,"LIFSON, DAVID",,,Distributor,,,,416-783-5200,,,,,"Lifson, David",,"131 Cartwright Avenue
Second Floor
Toronto, ON M4S 1Z4
Canada",,,
Eristocrat Communications Inc.,ERISP001,,,,,On,"PIMENTEL, NAT",info@eristocrat.com,,Distributor,No Description On File,,,905-858-8888,,905-858-0800,,,"Pimentel, Nat",,"2-2650 Meadowvale Blvd
Mississauga, On L9T 4C3
Canada",,,info@eristocrat.com
Gisele Dupuis & Associes Inc.,idefix,,,,,ON,"DUPUIS, GISELE",,http://none/,Distributor,Distributor in personalized clothing and specialty advertising,,,,,,,,"Dupuis, Gisele",none,"7553 Monastery Dr.
Niagara Falls, ON L2H 3A7
Canada",,,
D & R Enterprises Inc.,jessjul,,,,,ON,"HUNTER, PATTI-LYNNE",,,Distributor,3M Distributorship ( Mining Sector) with Promotional product division / safety incentives,,,705-566-3876,,705-566-9925,,,"Hunter, Patti-Lynne",,"P.o.box 2834 Stn.""a""
1231 Cardinal Crt.
Sudbury, ON P3A 3C2
Canada",,,
Jewell Promotions,jlocke,,,,,ON,"LOCKE, JULIE",,http://www.jewellpromotions.com/,Distributor,No Description On File,,,,,,,,"Locke, Julie",www.jewellpromotions.com,"165 Whitfield Ave
Toronto, ON M9L 1H2
Canada",,,
Fulcher Marketing Inc.,fulmark,,,,,ON,"FULCHER, DANIEL",fulcher.marketing@performa.com,http://http//fulcher.promocan.com,Distributor,Promotional Products Distributor,,,905-849-0099,,905-844-6261,,,"Fulcher, Daniel",http://fulcher.promoca...,"420 Avon Cr.
Oakville, ON L6J 2S9
Canada",,,fulcher.marketing@performa.com
Nordan Auto Accessories & Styling Limited,NORD0001,,,,,ON,"MICHELI, MAURO",,http://www.nordangroup.com/,Supplier,No Description On File,Pro-Motion,"Banners
Computer Products-Mouse Pads
Incentive Programs
Bar Products
Decals
Magnets
Coasters-Other
Display Products
Signs
",905-792-2002,800-746-7764,905-792-0009,,,"Micheli, Mauro",www.nordangroup.com,"326 Deerhurst Drive Unit #1
Brampton, ON L6T 5H9
Canada",,,
Plastic Print LTD / MAX Global,PLAS0013,,,,,ON,"BHAMSEE, REHNUMA",,http:,Supplier,No Description On File,,"Acrylic Products
Mugs-Plastic
Mugs-Ceramic
Plastic Products
Mugs-Insulated/Travel
",416-665-3162,,416-665-7763,,,"Bhamsee, Rehnuma",,"365 Flint Road
Downsview, ON M3J 2J2
Canada",,,
Powerfort Marketing,gdi-can,,,,,ON,"CHE, TERESA",,http://gdi-canada.com/,Distributor,"Premium and Promotional item, specialize on bags",,,,,,,,"Che, Teresa",gdi-canada.com,"110 West Beaver Creek Road
Unit 19-20
Richmond Hill, ON l4b 1j9
Canada",,,
"Maritz Canada, Inc.",MARI0001,,,,,ON,"MOFFATT, CAROL",,http://www.maritzcanada.com/,International Distributor,No Description On File,,,905-696-5063,,905-813-6809,,,"Moffatt, Carol",www.maritzcanada.com,"6900 Maritz Dr
Mississauga, ON L5W 1L8
Canada",,,
Promo-Ad & Associates Inc.,PROM0004,,,,,ON,"LUFTSPRING, JANICE",,http://www.promo-adinc.com/,International Distributor,No Description On File,,,,,,,,"Luftspring, Janice",www.promo-adinc.com,"401 Magnetic Dr
Unit 44-46
Toronto, ON M3J 3H9
Canada",,,
"Vectra Marketing Group, Inc.",VECT0001,,,,,ON,"COHAN, MARK",vmg@vectramarketing.com,http://www.vectramarketing.com/,International Other,No Description On File,,,416-444-9000,,416-221-3564,,,"Cohan, Mark",www.vectramarketing.com,"85 Scarsdaled Rd #100
North York, ON M3B 2R2
Canada",,,vmg@vectramarketing.com
Two-Four-Six Promotions,TWOF0001,,,,,ON,"WHALEY, HAL",,,International Distributor,No Description On File,,,705-721-0500,888-837-7766,705-728-2515,,,"Whaley, Hal",,"272 Innisfil St #9j
Barry, ON L4N 3G1
Canada","272 Innisfil Street, Unit 9j
Barrie, ON L4N 3G1
Canada",,
Task Force Marketing Group,TASK0002,,,,,ON,"OESEN, FRED",,http://www.teamtaskforce.com/,Supplier Rep,Comprehensive Sales & Marketing Service In Canada And USA.,"3M Promotional Markets,BIC Graphic,Canada Sportswear,A.T. Cross,DEBCO Bag & Umbrella,Dri Mark Products,ESP,Explorer Headgear,Faro,Precidio",,,,416-259-3326,,,"Oesen, Fred",www.teamtaskforce.com,"45 TWENTY SEVENTH ST
Toronto, ON M8W 2X2
Canada",,,
Vic Jones Holdings Ltd.,VICJ0001,,,,,London,"PONTES, ALAN",,,Distributor,No Description On File,,,011-441713285755,,011-441713287707,,,"Pontes, Alan",,"The Park Business Center
Kibuin, London NW5 5LS
England",,,
Amphora International,AMPHORA,,,,,On,"PRIEST, TREVOR",,http://www.anu-sport.com/,Supplier,No Description On File,,,877-264-7971,,416-261-6725,,,"Priest, Trevor",www.anu-sport.com,"3420 Eglington Ave East
Suite 401
Toronto, On M1J 2H9
Canada",,,
Source Promotions,MARLEY,,,,,ON,"CARTER, JEANETTE",,,Distributor,Sales/Marketing/Promotional Agency,,,,,,,,"Carter, Jeanette",,"3150 Rodick Road
Markham, ON L3R 5X4
Canada",,,
Max Global Mkt.,786,,,,,ON,"PATEL, MUSTAFA",,,Distributor,No Description On File,,,416-665-4629,,416-665-4639,,,"Patel, Mustafa",,"1095 Petrolia Dr
North York, ON M3J 2X7
Canada",,,
"Onyx Marketing Group, Inc.",ONYXM759,,,,,ON,"MCCARTHY, DIANNE",,http://www.onyxmarketing.com/,International Distributor,,,,416-490-8155,,416-490-8183,,,"McCarthy, Dianne",www.onyxmarketing.com,"2005 Sheppard Ave E 4th Floor
Toronto, ON M2J 5B4
Canada",,,
Aja (London) Ltd.,AJA,,,,,London,"BIDSTON, DEREK",,http://www.ajagift.co.uk/,Distributor,No Description On File,,,442077200278,,44 2077200378,,,"Bidston, Derek",www.ajagift.co.uk,"72 Chelsham Road
London, London SW4 6NP
United Kingdom",,,
Explorer Headgear Inc.,EXPLORER,,,,,ON,"RICHARDS, WALLY",,http://www.explorergear.com/,Supplier,No Description On File,"Explorer Headgear ""In-Stock"",Explorer Headgear Private Label - ""Custom Advantage"",Navigator Clothing",,905-480-9700,888-271-8152,905-480-9722,,,"Richards, Wally",www.explorergear.com,"10 Konrad Crescent
Markham, ON L3R 8T7
Canada",,,
Master Printers of New England,ONYXP002,,,,,ON,"WALLACE, GEORGE",,,Distributor,,,,,,,,,"Wallace, George",,"2001 Sheppard Ave E #310
North York, ON M2J 4Z7
Canada",,,
T & T International Trading Co,TTInt756,,,,,ON,"CHEN, WILSON",,http://www.texxinternational.com/,International Supplier,No Description On File,,,905-475-8488,,905-475-8690,,,"Chen, Wilson",www.texxinternational.com,"911 Denison St Unit 3
Markham, ON L3R 3K4
Canada",,,
STA Sales Agencies,STASa558,,,,,ON,"ARMSTRONG, SHAWN",sta-sales@rogers.com,,Distributor,No Description On File,,,,,,,,"Armstrong, Shawn",,"39 Stavebank Rd Ste 802
Mississauga, ON L5G 4N7
Canada","39 Stavebank Rd Ste #802
Mississauga, ON L5G 4N7
Canada",,sta-sales@rogers.com
China Direct B-2-b Ltd.,CHINAB2B,,,,,Hong Kong,"YAU, JOSE",,,Supplier,No Description On File,"Full Range of Promotional Products,OEM Supplier to the Pharmaceutical Industry",,,,,,,"Yau, Jose",,"Albion Plaza, 2-6 Granville Road
Kowloon, Hong Kong 00000
Hong Kong",,,
A Couple of Squares,couple01,,,,,ON,"ERB, BERNADETTE",bernadette@acoupleofsquares.com,http://www.acoupleofsquares.com/,Supplier,,,,(519) 672-6979 ext 225,,519-672-4487,,,"Erb, Bernadette",www.acoupleofsquares.com,"501 Nightingale Ave
London, ON N5W 4C4
Canada",,,bernadette@acoupleofsquares.com
The Promart Asia Group,PROMART,,,,,Kowloon,"CHEUNG, WENSA",,http://www.promartasia.com/,International Other,Manufacturer & Trading,Promart Asia,,8.52236328192764E+018,,(852) 2764 3884/2330 8856,,,"Cheung, Wensa",www.promartasia.com,"Rm 905-6 Fu Hang Ind Bldg
Hok Yuen St East
Hung Hom, Kowloon 00000
Hong Kong",,,
"Great Canadian Promotions, Div. JAE Associates Ltd.",AIAGr258,,,,,ON,"RANG, JAE",,,Distributor,,,,905-829-4743,,,,,"Rang, Jae",,"2483 Felhaber Cresent
Oakville, ON L6H 7R8
Canada",,,
RDF Unlimited Concepts,RDFUn671,,,,,ON,"MCDONALD, RENEE",,http://www.rdfunlimited.com/,International Distributor,,,,416-431-1052,,,,,"McDonald, Renee",www.rdfunlimited.com,"122 Pandora Cir
Scarborough, ON M1H 1V9
Canada",,,
TalDanSales,taldan,,,,,ON,"RUBIN, DANIEL",daniel@taldan.ca,http://www.taldansales.com/,Distributor,The Sales and Distribution of Promotional Merchandise to the end user.,,,416-629-2309,,406-926-0550,,,"Rubin, Daniel",www.taldansales.com,"82a Ellerslie Ave
North York, ON M2N 1X8
Canada",,,daniel@taldan.ca
"Carry On Marketing Enterprises, Inc.",Carry930,,,,,ON,"LATEGAN, STUART",,http://www.carryonmarketing.com/,Distributor,PRINTING of Promotional Products. We PRINT almost ANYTHING on anything. We also do not have minimum quantities and will print overnight if required. NO Minimums & Quick turnaround,,,905-829-9053,,905-829-5948,,,"Lategan, Stuart",www.carryonmarketing.com,"1217 Jonathan Dr
Oakville, ON L6J 7H6
Canada",,,
Danier Leather Inc.,Danie941,,,,,ON,"SUTEJ, HEIDI",,http://www.danier.com/,International Supplier,No Description On File,,,416-762-8175,,416-762-7034,,,"Sutej, Heidi",www.danier.com,"2650 St Clair Ave W
Toronto, ON M6N 1M2
Canada",,,
Jacoby Enterprises,urstyle,,,,,ON,"JACOBY, SHY",,http://www.yourstylepromotions.com/,Distributor,,,,905-761-3314,,905-761-5318,,,"Jacoby, Shy",www.yourstylepromotion...,"8000 Jane Street Ste 203
Concord, ON L4K 5B8
Canada",,,
5E Clothing Urban Blanks,EClot538,,,,,ON,"EARL, JAMES",,http://www.5eclothing.com/,International Supplier,No Description On File,,,905-331-4833,,866-462-9969,,,"Earl, James",www.5eclothing.com,"3209 Souvereign Rd
Burlington, ON L7M 2K1
Canada","1816 Hobson Dr
Burlington, ON L7L
Canada",,
Brighter Image Group Inc,Brigh324,,,,,ON,"SAWATSKY, KIM",,,International Distributor,No Description On File,,,416-800-0501,,416-340-7520,,,"Sawatsky, Kim",,"1071 King Street West Ste 106
Toronto, ON M6K 3K2
Canada",,,
Perry's Creative Promotions,121,,,,,CA,"PERRY, DWIGHT",dwight@pinthis.com,http://www.pinthis.com/,Distributor,Full-service promotional agency. We specialize in products for Rotary International.,,,510-582-5366,,,,,"Perry, Dwight",www.pinthis.com,"PO Box 20610
Castro Valley, CA 94546-8610
United States",,,dwight@pinthis.com
InnoVision Headwear,3359500,,,,,ON,"AU-YEUNG, KEVIN",kevinay@ivheadwear.com,http://www.ivheadwear.com/,Distributor,,,,416-335-9500,,,,,"Au-Yeung, Kevin",www.ivheadwear.com,"2151 Mccowan Road
Toronto, ON M1S3Y6
Canada",,,kevinay@ivheadwear.com
Aardvark Premiums And Incentives Group Inc.,AARDPREM,,,,,ON,"SWEENEY, JOSEPH",,,International Distributor,No Description On File,,,,,,,,"Sweeney, Joseph",,"55 St. Clair Ave West Ste 255
Toronto, ON M4V 2Y7
Canada",,,
Add Impact,ADD10351,,,,,On,"NICEFORO, REMO",remo@add-impact.com,http://www.add-impact.com/,Distributor,No Description On File,,,(905) 850-2676 x 228,,905-850-1057,,,"Niceforo, Remo",www.add-impact.com,"120 Jevlon Dr # 1a
Woodbridge, On L4L 8G3
Canada",,,remo@add-impact.com
Adgear Canada,ADGEP001,,,,,On,"SHAPIRO, MICHAEL",,,Distributor,No Description On File,,,,,,,,"Shapiro, Michael",,"735 New Westminster Dr., Unit 85
Thornhill, On L4J 7Y9
Canada",,,
Ads Plus,ADS10402,,,,,On,"HODGKINSON, CATHY",,,Supplier,No Description On File,,,,,,,,"Hodgkinson, Cathy",,"200 Sheppard Ave West, # 806
Toranto, On M3N 1A2
Canada",,,
Ad-wac & Associates,ADWAP001,,,,,On,"CHERRY, WALTER",,,Distributor,No Description On File,,,,,613-727-8848,,,"Cherry, Walter",,"Box 11433, Station H
Nepean, On K2H 7V1
Canada",,,
All That Promotions Mgment.,ALLTP001,,,,,On,"CASTELLO, KEITH",,,Distributor,No Description On File,,,,,416-492-7853,,,"Castello, Keith",,"16 Corvus Starway
Toronto, On M2J 1P2
Canada",,,
Bevan Promotions,BEVAP001,,,,,On,"SMALL, MURRAY",,,Distributor,No Description On File,,,,,,,,"Small, Murray",,"2041 Cliff Rd., Unit 7
Mississauga, On L5A 3N8
Canada",,,
Black Diamond,BLACP002,,,,,On,"WILKS, RICHARD",,,Distributor,No Description On File,,,,,,,,"Wilks, Richard",,"80 Mont Clair Ave
Toronto, On M5P 1P8
Canada",,,
Castlerock Sportswear Inc.,CASTP002,,,,,On,"PEERS, DAVID",,,Distributor,No Description On File,,,,,,,,"Peers, David",,"99 Rowntree Dairy Rd., 2nd Floor
Woodbridge, On L4L6C8
Canada",,,
Clarke's Golf,CLARP004,,,,,On,"CLARKE, WILLIAM",,,Distributor,No Description On File,,,905-878-1818,,,,,"Clarke, William",,"18 Thompson Rd., Unit 7 & 8
Milton, On L9T 2X5
Canada",,,
COYOTE PROMOTIONS,coyotepr,,,,,ON,"JOLLY, ERIC",ericj@coyotepromos.com,http://www.coyotepromos.com/,Distributor,,,,905-332-5118,,905-633-8312,,,"Jolly, Eric",www.coyotepromos.com,"720 Toledo Court
Burlington, ON L7L 6A9
Canada",,,ericj@coyotepromos.com
Creative Resources,CREAP132,,,,,On,"SAWATSKY, KIM",,,Distributor,No Description On File,,,,,,,,"Sawatsky, Kim",,"12824 Dixie Rd.
Brampton, On L6T 3S1
Canada",,,
ORANGE TAG INC.,debut,,,,,ON,"MCBURNEY, BRAD",,http://www.orangetaginc.com/,Distributor,,,,416-213-0133,,416-213-0085,,,"McBurney, Brad",www.orangetaginc.com,"250 Galaxy Blvd.
Toronto, ON M9W 5R8
Canada",,,
Diamond Promotions,DIAMP003,,,,,On,"WILLICK, DONALD",,,Distributor,No Description On File,,,,,,,,"Willick, Donald",,"19 High St., Bldg. A, #106
Fort Erie, On L2A 5W7
Canada",,,
Diamond Showcase,DIAMP005,,,,,On,"FRIED, NORMAN",,,Distributor,No Description On File,,,,,,,,"Fried, Norman",,"221 Victoria St. #310
Toronto, On M5B 1V4
Canada",,,
Dynamic Promotions,DYNAP014,,,,,On,"EVELY, BRIAN",,,Distributor,No Description On File,,,,,,,,"Evely, Brian",,"3275 College Ave #108
Windsor, On N9C 1S7
Canada",,,
Eagle Supplies,EAGLP020,,,,,On,"GIRARD, NANCY",,,Distributor,No Description On File,,,,,,,,"Girard, Nancy",,"2496 Isle Of Man Rd
Kingston, On K7L 4V3
Canada",,,
E.B.P. - Div. Of In Step Electronics,EBPDP001,,,,,On,"JOHNSTON, DAN",,,Distributor,No Description On File,,,,,,,,"Johnston, Dan",,"400 Bentley St., Unit 1
Markham, On L3R 8H6
Canada",,,
Eugene Corporate Neckwear,EUGEP001,,,,,On,"EUGENE, MILTON",,,Supplier,No Description On File,,,905-882-0106,,905-731-3268,,,"Eugene, Milton",,"20 Eveningside Rd.
Thornhill, On L3T 4K2
Canada",,,
Fb United,FBUNP001,,,,,On,"LESHUK, TONYA",,,Supplier,No Description On File,,,905-616-0795,,905-319-6435,,,"Leshuk, Tonya",,"2238 Britannia Rd., RR #3
Campbellville, On L0P 1B0
Canada",,,
Windcheater Promotions Inc.,windpro,,,,,ON,"LUTZ, MICHAEL",,http://www.windcheater.com/,Distributor,"Promotional product sales, screen printing and embroidery of apparel",,,905-799-2603,,905-799-3731,,,"Lutz, Michael",www.windcheater.com,"1 Australia Drive
Brampton, ON L6R 3E4
Canada",,,
Maxx Marketing Inc.,MAXX0001,,,,,ON,"FARQUHAR, ROBERT",,,International Distributor,No Description On File,,,,,,,,"Farquhar, Robert",,"251 Amber St. Unit #4
Markham, ON L3R 3J7
Canada",,,
Go Graphics and Promotions,GoGra688,,,,,ON,"DAY, STACEY",,,International Distributor,,,,519-662-4347,,519-662-4887,,,"Day, Stacey",,"3523 Huron Road
New Hamburg, ON N3A 3C5
Canada",,,
"Bretzky's Team & Corporate Outfitters, Inc.",BRETP001,,,,,On,"HALES, KEITH",,,Distributor,No Description On File,,,905-434-1600,,905-434-4658,,,"Hales, Keith",,"914 Beacon Hill Ct.
Oshawa, On L1K 1Y3
Canada",,,
Gdf Pro,GDFPP001,,,,,On,"FREDERICK, GARY",,,Distributor,No Description On File,,,,,,,,"Frederick, Gary",,"32 Beddington Ave
Nepean, On K2J 3M9
Canada",,,
God Decision,GODDP001,,,,,On,"LUK, SPENCER",,,Supplier,No Description On File,,,,,,,,"Luk, Spencer",,"110 W. Beaver Creek Road
Richmond Hill, On L4B 1J9
Canada",,,
Golf Results Inc,GOLFP005,,,,,On,"SENEY, BILL",,http://www.profectaswing.com/,Supplier,No Description On File,,,,,519-966-9668,,,"Seney, Bill",www.profectaswing.com,"579 Cabana Rd West
Windsor, On N9G 1B2
Canada",,,
Graphics International Group,GRAPP063,,,,,On,"MERRICK, ZOE",,,Supplier,No Description On File,,,,,,,,"Merrick, Zoe",,"110 Travail
Markham, On L3F 3J1
Canada",,,
Impress Me Marketing,IMPRP004,,,,,On,"CINEL, TERRY",,,Distributor,No Description On File,,,519-741-8133,,519-741-9879,,,"Cinel, Terry",,"230 Hedgestone Ct
Kitchener, On N2E 3K4
Canada",,,
IncentiveCity,INCEP003,,,,,ON,"GINGERICH, JONATHAN",,http://www.incentivecity.com/,Distributor,"Incentivecity is an Application Service Provider (ASP) that offers an extensive suite of tools and services that enable businesses to run effective online incentive programs that excite participants and drive results. Our robust platform can be used to run programs of various types, scopes and sizes including employee recognition programs, sales incentive programs, dealer and channel programs, consumer loyalty programs, and promotional e-commerce stores, to just name a few.",,,,,,,,"Gingerich, Jonathan",www.incentivecity.com,"3-7370 Bramalea Rd
Mississauga, ON L5SIN6
Canada",,,
Inflatable Sign Systems,INFLP001,,,,,On,"ANDERSON, MARK",,,Supplier,No Description On File,,,,,,,,"Anderson, Mark",,"1930 Yonge Street
Toronto, On M$S1Z4
Canada",,,
Ink On Paper,INKOP001,,,,,On,"YUILL, SHIRLEY",,,Distributor,No Description On File,,,519-938-8517,,,,,"Yuill, Shirley",,"150 Clark Blvd. #144
Brampton, On L6T 4Y8
Canada",,,
JBM Graphics Limited,jbm111,,,,,ON,"GALLANT, DONNA",,http://www.jbmltd.com/,Distributor,,,,,,,,,"GALLANT, DONNA",www.jbmltd.com,"111-2465 Cawthra Rd
Mississauga, ON L5A 3P2
Canada",,,
J.M.B. Sales,JMBSP001,,,,,On,"BRUBACHER, JIM",jim@jmbsales.ca,,Distributor,No Description On File,,,519-747-5454,,,,,"Brubacher, Jim",,"290 Marsland Drive
Waterloo, On N2J 3Z1
Canada",,,jim@jmbsales.ca
Kangas Promotions Inc.,KANGP002,,,,,On,"KANGAS, JEANETTE",,,Distributor,No Description On File,,,905-566-5277,,,,,"Kangas, Jeanette",,"462 Luzon Crescent
Mississauga, On L5B 3W9
Canada",,,
"Katkov Enterprises, Ltd",KATKP001,,,,,On,"RODRICKS, CORNELUS",,,Distributor,No Description On File,,,,,,,,"Rodricks, Cornelus",,"6128 Kestrel Rd
Mississauga, On L5T 1Z2
Canada",,,
Kdc Ventures,KDCVP001,,,,,On,"CHEVALIER, KIMBERLEY",,,Distributor,No Description On File,,,905-830-1360,,,,,"Chevalier, Kimberley",,"98 Bristol Rd.
Newmarket, On L3Y 8B5
Canada",,,
Keepsake Promotions,KEEPP002,,,,,On,"KEEPING, ALEC",,,Distributor,No Description On File,,,,,,,,"Keeping, Alec",,"195 Brenda Crescent
Woodstock, On N4S 7R8
Canada",,,
Landmark Corp. Marketing Serv. Ltd.,LAN16911,,,,,On,"LANDA, ALEX",,,Distributor,No Description On File,,,,,,,,"Landa, Alex",,"5001 Yonge St., Suite 205
Toronto, On M2N 6P6
Canada",,,
Leathersport,LEATP001,,,,,On,"CAMMISA, JULIE",,,Supplier,No Description On File,,,,,,,,"Cammisa, Julie",,"3992 Chesswood Dr.
Downsview, On M3J 2W6
Canada",,,
"Lindsay Mason & Associates, Inc",LINDP009,,,,,On,"TURNER, JOHN",,,Distributor,No Description On File,,,,,,,,"Turner, John",,"17665 Leslie St #47
Newmarket, On L3Y 3E3
Canada",,,
m3brand,m3brand,,,,,ON,"MURPHY, MICHAEL",,http://www.m3brand.com/,Distributor,Promotional advertising and graphic design.,,,,,,,,"Murphy, Michael",www.m3brand.com,"34a Noble Street Studios
Toronto, ON m6k 2c9
Canada",,,
Maple Leaf Marketing,MAPLP001,,,,,ON,"WILSON, MIKE",,http://http//www.mapleleafmarketing.com/,Distributor,No Description On File,,,,,,,,"Wilson, Mike",http://www.mapleleafma...,"635 Fourth Line
Unit 38
Oakville, ON L6L 5W4
Canada",,,
Massimo,MASSP003,,,,,On,"DI GIOVANNI, MASSIMO",,,Distributor,No Description On File,,,,,,,,"Di giovanni, Massimo",,"1 Whitmore Road, #24
Woodbridge, On L4L 8G4
Canada",,,
ISOGraphics International Inc.,mouse,,,,,ON,"COUPLAND, BOB",,http://www.isographics.com/,Supplier,"Printer and manufacturer of mouse pads, counter mats, cards, rulers, decals, and custom plastic items.",,"Bumper Strips
Coasters-Plastic
Display Products
Lapel Pins
Mats-Counter
Plastic Products
Rulers
Vinyl Products
Business Card Products
Computer Products-Mouse Pads
Key Tags-Plastic
Luggage Tags-Plastic
Membership Cards
Pressure-Sensitive Products
Scratch-Off Items
Coasters-Other
Decals
Labels
Magnets
Memo Boards
PVC Products
Slide Charts/Wheels
",905-823-2160,,905-823-6490,,,"Coupland, Bob",www.isographics.com,"1588 Finfar Court
Units 4 & 5
Mississauga, ON L5J4K1
Canada",,,
Mprint Communications Inc.,MPR18002,,,,,On,"RUSTIA, ARMAND",,,Distributor,No Description On File,,,,,,,,"Rustia, Armand",,"70 Villarboit Crescent
Concord, Vaughn, On L4K 4C7
Canada",,,
Multi Image Promotions,MULTP005,,,,,On,"COLBOURNE, HAROLD",,,Distributor,No Description On File,,,,,,,,"Colbourne, Harold",,"1271 Gorham St., Unit 14
Newmarket, On L3Y 7V1
Canada",,,
Nap,NAP P001,,,,,On,"BRAUDY, ROBERT",,,Distributor,No Description On File,,,,,,,,"Braudy, Robert",,"271 Ridley Blvd., Suite 608
Toronto, On M5M 4N1
Canada",,,
Omnitrans Custom Brokers,OMNIP009,,,,,On,"PARK, STEVE",,,Distributor,No Description On File,,,,,,,,"Park, Steve",,"6299 Airport Rd., Ste. 301
Mississauga, On L4V 1N3
Canada",,,
Park Sign & Display,PARKP006,,,,,On,"WHITE, BRIAN",,,Distributor,No Description On File,,,705-444-1723,,,,,"White, Brian",,"100 Mountain Rd., Unit 6
Collingwood, On L9Y3Z8
Canada",,,
Promographix Inc.,PROMP050,,,,,On,"RIVERS, SHAWN",,,Distributor,No Description On File,,,,,,,,"Rivers, Shawn",,"2100 - 5 Thurston Dr.
Ottawa, On K1G 4K8
Canada",,,
Promotional Impressions Company,PROMP136,,,,,On,"HOLLAND, CATHERINE",,,Distributor,No Description On File,,,905-820-8656,,905-820-5348,,,"Holland, Catherine",,"6-2400 Dundas St W #249
Mississauga, On L5K 2R8
Canada",,,
Proforma Promotions,propromo,,,,,ON,"DOUCET, KEN",ken.doucet@proforma.com,,Distributor,,,,519-888-0093,,,,,"Doucet, Ken",,"165-55 Northfield Dr. E.
Waterloo, ON N2K 3T6
Canada",,,ken.doucet@proforma.com
Sales-are-us Agency Inc.,SALEP015,,,,,On,"BARTON, DAVID",,,Distributor,No Description On File,,,,,,,,"Barton, David",,"22 Wallis Dr.
Peterborough, On K9J 6B7
Canada",,,
Signature Marketing,SIGNP022,,,,,On,"YOUNT, GARY",,,Distributor,No Description On File,,,,,,,,"Yount, Gary",,"645 Westmount Road East, Suite 17
Kitchener, On N2E 3SE
Canada",,,
the Advertising Store,sky1955,,,,,ON,"SKY, EARL",,,Distributor,promotional products re-seller,,,,,,,,"Sky, Earl",,"10520 Yonge Street
Unit 35-b , Suite 235
Richmond Hill, ON m3h 1p8
Canada",,,
Smith & Smith Advertising Inc.,SMITP003,,,,,On,"SMITH, DEAN",,,Distributor,No Description On File,,,,,,,,"Smith, Dean",,"3049 Universal Dr.
Mississauga, On L4X 2E2
Canada",,,
Sponsorship & Licensing Management Ltd,SPONP002,,,,,On,"ARMSTRONG, JOHN",,,Distributor,No Description On File,,,,,,,,"Armstrong, John",,"11 Prince Andrew Place
Toronto, On M3C 2H2
Canada",,,
Sales Creators Inc.,SSTEP001,,,,,On,"STAPLETON, SCOTT",,,Distributor,No Description On File,,,,,,,,"Stapleton, Scott",,"390-a Macewan
Goderich, On N7A 4M4
Canada",,,
Storm International Inc,STORP001,,,,,On,"JOHNSON, STEVE",,,Distributor,No Description On File,,,,,416-496-0211,,,"Johnson, Steve",,"552 Gordon Baker Rd
Toronto, On M2H 3B4
Canada",,,
Surfco Inc,SURFP002,,,,,On,"BEN-HAIM, NIV",,,Supplier,No Description On File,,,,,,,,"Ben-haim, Niv",,"20 Staffern Drive #3
Concord, On L4K 2Z7
Canada",,,
T2 Green Golf Products Inc.,T2GRP001,,,,,On,"GIORDANO, JOHN",,,Supplier,No Description On File,,,,,,,,"Giordano, John",,"27 Armthorpe Rd.
Brampton, On L6Z 5M4
Canada",,,
Tatulis International,TATUP001,,,,,On,"TATULIS, GUS",,,Supplier,No Description On File,,,,,,,,"Tatulis, Gus",,"45 Bucking Lane Dr # 115
Stratford, On N5A 7B7
Canada",,,
The Corporate Image,TCIMAGE,,,,,ON,"MARTIN, SANDY",,,Distributor,Promotional Products Distributor,,,905-662-3880,,905-662-2784,,,"Martin, Sandy",,"43 Teal Avenue
Unit 4
Stoney Creek, ON L8E3B1
Canada",,,
The Custom Cup And Cap Company,THECP013,,,,,On,"WAKELING, FRED",,,Distributor,No Description On File,,,,,,,,"Wakeling, Fred",,"1746 Oxford St. E.
London, On N5V 3R6
Canada",,,
The Design Department Inc.,THEDP003,,,,,On,"BRODEY, MICHAEL",,,Distributor,No Description On File,,,,,,,,"Brodey, Michael",,"49 Holsworthy Crescent
Thornhill, On L3T 4C5
Canada",,,
The Sportswear Co.,THESP011,,,,,On,"JANMOHAMED, AL",,,Distributor,No Description On File,,,,,,,,"Janmohamed, Al",,"150 Milner Ave., #39
Scarborough, On M1S 3R3
Canada",,,
Tiffany Tree,TIFFP002,,,,,On,"LOWE, MAUREEN",,,Distributor,No Description On File,,,,,,,,"Lowe, Maureen",,"328 Passmore Ave., Unite 37
Scarborough, On M1V 5J5
Canada",,,
Tmb Promotions,TMBPP001,,,,,On,"BEATY, JOAN",,,Distributor,No Description On File,,,905-841-7536,,905-841-1993,,,"Beaty, Joan",,"17 Banff Dr #104
Aurora, On L4G 3E3
Canada",,,
Top Notch Designs,TOPNP001,,,,,ON,"LATOUR, SONYA",,,Distributor,No Description On File,,,,,,,,"Latour, Sonya",,"431 Pitt St., Ste. 1, Unit 6
Cornwall, ON K6J 3R3
Canada",,,
Unique Signature Prints,UNIQP018,,,,,On,"SANHAM, HEATHER",,,Supplier,No Description On File,,,,,,,,"Sanham, Heather",,"178 Main St., Ste. 101
Unionville, On L3R 2G9
Canada",,,
Usa-pro Apparel Corp,USA22362,,,,,On,"TAWAWALA, HABIB",,,Supplier,No Description On File,,"Caps-Ball
Fleece Products - Jackets
Golf-Apparel
Shirts
Sweats
Towels
Caps-Novelty
Fleece Products - Other
Jackets
Shorts
T-Shirts
Uniforms
Caps-Other
Fleece Products - Shirts
Robes
Sporting Goods-Apparel
Tennis-Apparel
Visors
",905-889-6018,,416-497-9412,,,"Tawawala, Habib",,"111 Jenny Wrenway
North York, On M2H 2Z1
Canada",,,
Webmasters 1,WEBMP001,,,,,On,"GOLDSTEIN, WAYNE",,,Distributor,No Description On File,,,,,905-472-1813,,,"Goldstein, Wayne",,"4261- A14 Hwy 7e
Markham, On L3R 9W6
Canada",,,
Wellrounded Production House Inc.,WEL22658,,,,,On,"MAYHEW, TERRY",,,Distributor,No Description On File,,,,,,,,"Mayhew, Terry",,"96 Lennox St., Box 362
Richmond, On K0A2Z0
Canada",,,
Needham Promotions,NEEDP001,,,,,ON,"NEEDHAM, DAVID",,http://www.needhampromotions.com/,Distributor,"Silkscreening, Printing, Embroidery",,,905-479-7950,,905-479-6948,,,"Needham, David",www.needhampromotions.com,"7455 Victoria Park Ave
Ste 200
Markham, ON L3R 2
Canada",,,
Bill Mahood Advertising,BILLP008,,,,,On,"MAHOOD, BILL",,http://www.billmahoodadvertising.com/,Distributor,Promotional Products Distributor,,,905-281-0274,,905-281-2027,,,"Mahood, Bill",www.billmahoodadvertis...,"4316 Village Ctr. Ct. 2nd Fl.
Mississauga, On L4Z 1S2
Canada",,,
Impact Promotional Products,IMPAP013,,,,,On,"COLLINS, GAYLE",,,Distributor,No Description On File,,,,,,,,"Collins, Gayle",,"3614 Horseshoe Valley Rd W
Phelpston, On L0L 2K0
Canada",,,
Grip Gear Inc,grip,,,,,ON,"WINIKOFF, SHAWN",,http://www.gripgearpromo.com/,Distributor,Distributor of promotional items.,,,,,,,,"Winikoff, Shawn",www.gripgearpromo.com,"300 North Queen St.
Suite 107
Toronto, ON M9C 5K4
Canada",,,
Forbes Campbell,forbes,,,,,ON,"SALDANHA, SID",,,Supplier,Apparel Manufacturer from India. Mens and womens fine gauge knits including polo shirts and T-shirts. We do private label programs including mercerized cottons and performance fabrics.,,,905-257-4967,,905-257-4281,,,"Saldanha, Sid",,"1416 Clearwater Crescent
Oakville, ON L6H7J5
Canada",,,
Northern Promotions,NORTP020,,,,,On,"BURGESS, DAVE",,http://www.bconnex.net/~norpromo,Distributor,No Description On File,,,705-725-8380,,705-725-1851,,,"Burgess, Dave",www.bconnex.net/~norpromo,"260 Bayview Dr.
Barrie, On L4N 4Y8
Canada",,,
Business Promotion Services,BUSIP046,,,,,On,"WOSCHIZ, JOHN",,,Distributor,No Description On File,,,,,,,,"Woschiz, John",,"2171 Kawartha Cres
Mississauga, On L5H 2P8
Canada",,,
Crown Industries,CROWP007,,,,,On,"BESTER, RON",,,Distributor,No Description On File,,,,,,,,"Bester, Ron",,"7325 Bramalea Rd.
Mississauga, On L5S 1C5
Canada",,,
Finstar Promotions Inc.,FINSP001,,,,,On,"FINLEY, DAVE",,,Distributor,No Description On File,,,,,,,,"Finley, Dave",,"140 Ann St.
London, On N6A 1R3
Canada",,,
Modern Flare Sales,MODEP003,,,,,On,"FISHER, MICHAEL",michael@modernflaresales.com,,Distributor,No Description On File,,,905-760-9333,,905-760-9879,,,"Fisher, Michael",,"72 Samuel Oster Ave.
Thornhill, On L4J 7C8
Canada",,,michael@modernflaresales.com
Yvan R. Dubeau & Associates,YVANP001,,,,,On,"DUBEAU, YVAN",ydubeau@gosafeguard.com,,Distributor,No Description On File,,,613-837-6223,,613-837-7069,,,"Dubeau, Yvan",,"559 Brookridge
Orleans, On K4A 1Z3
Canada",,,ydubeau@gosafeguard.com
ETI Promos,ETIPromo,,,,,ON,"BISHOP, KIM",,,Distributor,No Description On File,,,905-473-1779,,905-473-1772,,,"Bishop, Kim",,"1100 Gorham St
Ste 11b-186
New Market, ON L3Y8Y8
Canada",,,
Incentive Impact Inc./Navy Jacket Marketing,Incen124,,,,,ON,"COOK, STEVEN",,http://www.navyjacket.com/,International Distributor,No Description On File,,,905-629-0737,,905-629-9622,,,"Cook, Steven",www.navyjacket.com,"2601 Matheson Blvd. #17
Mississauga, ON L4W 5A8
Canada",,,
Promotional Air Inc,PromoAir,,,,,ON,"BARLETTA, VINCE",beefbaron@rogers.com,,Distributor,No Description On File,,,519-652-8188,,519-672-6635,,,"Barletta, Vince",,"264 Dundas St
London, ON N6A 1H3
Canada",,,beefbaron@rogers.com
Promotrends,ptrends,,,,,ON,"CHAN, SKIMMY",,http://www.promotrends.com/,Supplier,No Description On File,,,,,,,,"Chan, Skimmy",www.promotrends.com,"80 Shields Ct
Markham, ON L3R 9T5
Canada",,,
KayBerk Promotions,KayBerk,,,,,ON,"GIANNARIS, NICK",,http://www.kayberk.com/,Distributor,Promotional products distribution and consultation.,,,800-571-0684,,866-312-5880,,,"Giannaris, Nick",www.kayberk.com,"575 Proudfoot Lane
Suite 1111
London, ON N6H 4R5
Canada",Same As Mailing Address,,
GT Promotions,GTPROMO,,,,,ON,"PASSERI, REMO",,http://www.golftown.com/,International Distributor,,,,905-761-1246 x407,,,,,"Passeri, Remo",www.golftown.com,"90 Allstate Pkwy, Ste 800
Markham, ON L3R 6H3
Canada",,,
TexServ Sales & Marketing,T331690,,,,,ON,"DAVIES, LINDA",,,Supplier Rep,,,,905-832-4533,,,,,"Davies, Linda",,"40 Lancer Drive
Maple, ON L6A 1C9
Canada",,,
Chocotelegram,telegram,,,,,ON,"SMITH, ILANA",,http://www.chocotelegram.com/,Supplier,,,,x220,,,,,"Smith, Ilana",www.chocotelegram.com,"1210 Eglinton Avenue West
Toronto, ON M6E2E3
Canada",,,
What's Up Clothing Company,Whatsup,,,,,ON,"HARRIS, VICTOR",,http://www.whatsupcc.com/,Distributor,No Description On File,,,(519) 652-6781 x101,,519-652-9860,,,"Harris, Victor",www.whatsupcc.com,"4056 Meadow Brook Dr, Unit 123
London, ON N6L 1E3
Canada",,,
The Advertising Store,AdvStore,,,,,ON,"PLUDWINSKI, EARL",,,,,,,,,,,,,,,,,
Hype Products,HypeP,,,,,ON,"VOLPE, MARILYN",,http://www.hypeproducts.ca/,Distributor,,,,,,,,,"Volpe, Marilyn",www.hypeproducts.ca,"70 East Beaver Creek Rd #30
Richmond Hill, ON l4b3b2
Canada",,,
Unisync Group Ltd.,Unisync,,,,,ON,"BEZANSON, JANA",jbezanson@unisyncgroup.com,http://www.unisyncgroup.com/,International Distributor,,",Rosalind Frydberg",,905-361-8989 x268,,905-361-1514,,,"Bezanson, Jana",www.unisyncgroup.com,"1660 Tech Avenue
Suite 5
Mississauga, ON L4W 5S7
Canada",,,jbezanson@unisyncgroup.com
KL Leisure Wear,KLLeisur,,,,,ON,"MACTAVISH, BARB",,,Distributor,,,,519-870-3985,,,,,"MacTavish, Barb",,"509 Commissioners Rd West
Ste 403
London, ON N6J1Y5
Canada",,,
Crossbar Athletic Wear,Crossbar,,,,,ON,"KASTNER, DAVID",,http://www.crossbar.ca/,Supplier,No Description On File,,,416-742-1950,,416-742-7324,,,"Kastner, David",www.crossbar.ca,"503 Oakdale Road
Downsview, ON M3N 1W7
Canada",,,
Varsity Promotions,varpro02,,,,,ON,"RAMOS, RACHEL",,http://www.varsitypromotions.ca/,Distributor,,,,x112,,,,,"Ramos, Rachel",www.varsitypromotions.ca,"100 Westcreek Blvd.
Unit #1
Brampton, ON L6T 5V7
Canada",,,
All Creative Promotions Inc.,ACPromo,,,,,ON,"FIELDS, STEPHEN",,http://www.allcreative.org/,Distributor,,,,,,,,,"Fields, Stephen",www.allcreative.org,"37 Densley Ave.
Unit B
Toronto, ON M6M 2P5
Canada",,,
GLT International LTD,GLT,,,,,ON,"LUND, GARY",,http://www.gltrpomo.com/,Distributor,,,,519-353-5570,877-217-0177,519-353-5503,877-217-0177,,"Lund, Gary",www.gltrpomo.com,"257 Inkerman Street
Box 539
Paisley, ON N0G 2N0
Canada",,,
Sullivan Bay Inc.,SBInc,,,,,ON,"SULLIVAN, BRIAN",,http://www.sullivanbay.ca/,Distributor,,,,519-770-0005,,,,,"Sullivan, Brian",www.sullivanbay.ca,"49 Craig Street
Brantford, ON N3R 7H8
Canada",,,
Northern Lights Promotions,NLPromo,,,,,ON,"LAFANTAISIE, ARTHUR",,http://www.northernlightspromo.com/,Distributor,No Description On File,,,905-494-0849,,,,,"Lafantaisie, Arthur",www.northernlightsprom...,"150 Halmark Ave
Etobicoke, ON M8W 4K8
Canada",,,
BDR Transfers,BDR,,,,,ON,"EDWARDS, BARBARA",EDWARDS.BARB@COGECO.CA,,Distributor,,,,905-945-7656,,,,,"Edwards, BARBARA",,"5 Lorne Avenue
Grimsby, ON L3M 2H3
Canada",,,EDWARDS.BARB@COGECO.CA
Phoenix Custom Creations Inc,PNX,,,,,ON,"BEN-HAIM, ASAF",asaf@pnx.ca,http://www.pnx.ca/,Supplier,,,,905-326-3262,,905-326-3263,,,"Ben-Haim, Asaf",www.pnx.ca,"161 Connie Cres # 7
Concord, ON L4K 1L3
Canada",,,asaf@pnx.ca
K Squared Promotions,Ksquared,,,,,ON,"STEPHENS, KAREN",,,Distributor,,,,519-843-1551,,,,,"Stephens, Karen",,"595 St. George St. E.
Fergus, ON N1M 1L1
Canada",,,
Bridgeport,Bport,,,,,ON,"MIFFLIN, LINDA",,,Distributor,,,,,,,,,"Mifflin, Linda",,"301 Frances Ave., Ste. 1902
Stoney Creek, ON L8E 3W6
Canada",,,
Razor Promotions,razor,,,,,ON,"MELOCHE, SHANTELLE",,http://www.razorpromotions.com/,Distributor,,,,,,,,,"Meloche, Shantelle",www.razorpromotions.com,"6212 Concession 6 South
Amherstburg, ON N9V 2Y7
Canada",,,
Apex Promotions Inc.,APEXPRO,,,,,ON,"WHALEY, ROB",apexsales@sympatico.ca,,Distributor,,,,,,,,,"Whaley, Rob",,"452 County Rd 2 E
Gananoque, ON K7G 2V4
Canada",,,apexsales@sympatico.ca
ASAP Print Management,ASAPPM,,,,,ON,"TRUMBLEY, LISA",,http://www.asappm.com/,Distributor,,,,,,,,,"Trumbley, Lisa",www.asappm.com,"215 Terence Matthews Crest.
Unit 1
Kanata, ON K2M 1X5
Canada",,,
Westpine Promotions,Westpine,,,,,ON,"MCCOMBE, CHERYL",,http://www.westpinepromotions.com/,Distributor,,,,905-557-0152,,905-557-0153,,,"McCombe, Cheryl",www.westpinepromotions...,"118 King Street
Mount Albert, ON L0G 1M0
Canada",,,
visions in Ink,ashif,,,,,ON,"TEJANI, ASHIF",,http://www.inkvisions.com/,Distributor,,,,519-942-6216,,,,,"Tejani, Ashif",www.inkvisions.com,"21201 Main Street
Alton, ON L7K 1R6
Canada",,,
BrandPros,brandpr1,,,,,ON,"CAMPBELL, ENIKO",brandpro2@cogeco.ca,,Distributor,,,,416-999-6221,,,,,"Campbell, Eniko",,"2768 Guilford Cresent
Oakville, ON L6J 6Z7
Canada",,,brandpro2@cogeco.ca
Doodles Promotional Marketing,2439,,,,,ON,"L'HEUREUX, MOE",,http://www.doodlespromotions.com/,Distributor,,,,519-869-2808,,,,,"L'Heureux, Moe",www.doodlespromotions.com,"2439 Lisa Crescent
Bright's Grove, ON N0N 1C0
Canada",,,
Mega Promotions and Solutions,argere,,,,,ON,"BAKER, ARGERE",mps_mega@yahoo.ca,,Supplier,,,,416-553-6327,,,,,"Baker, Argere",,"3-1750 The Queensway
Suite 203
Etobicoke, ON M9C 5H5
Canada",,,mps_mega@yahoo.ca
Rainville Graphic Solutions,Rainvill,,,,,ON,"KINLOUGH, JIM",,http://www.rainvillegraphics.com/,International Distributor,,,,416-534-7838,800-264-7353,,,,"Kinlough, Jim",www.rainvillegraphics.com,"110 Atlantic Ave
Toronto, ON M6K 1X9
Canada",,,
Sterling Promotions Inc.,dayeh,,,,,ON,"DAYEH, ALBERT",sales@sterlingpromotions.ca,,Distributor,,,,,,,,,"Dayeh, Albert",,"6-820 Gartshore St
P.o.box 159
Fergus, ON N1M 2W8
Canada",,,sales@sterlingpromotions.ca
Pizazz Promotions,PIZAZZ09,,,,,ON,"ST JAMES, LEE",,http://www.pizazzpromo.com/,Distributor,,,,,,,,,"St James, Lee",www.pizazzpromo.com,"Unit 9 - 250 Wyecroft Rd
Oakville, ON L6K 3T7
Canada",,,
PUBLIMPACT,publim01,,,,,NUEVO LEON,"GONZALEZ MOGAS, JORGE",,http://www.publimpact.com/,Distributor,,,,528181902233,,,,,"GONZALEZ MOGAS, JORGE",www.publimpact.com,"Hilario Martinez 809
Monterrey, NUEVO LEON 64700
Mexico",,,
Red Incentives Inc.,REDINC,,,,,ON,"CERASUOLO, DINO",dino@redincentives.com,http://www.redincentives.com/,Distributor,,,,905-856-2733,,416-987-0017,,,"Cerasuolo, Dino",www.redincentives.com,"71 Marycroft Avenue
Unit 5
Woodbridge, ON L4L 5Y6
Canada",,,dino@redincentives.com
Great Northern Sportswear,GNS,,,,,ON,"SCHULTZ, FRED",,http://www.gnsport.com/,Distributor,,,,,,,,,"Schultz, Fred",www.gnsport.com,"5-420 Erb St. West
Suite 101
Waterloo, ON N2L 6K6
Canada",,,
BoCon Promotions,BoCon01,,,,,ON,"WILKINS, JIM",,http://www.boconpromotions.com/,Distributor,No Description On File,,,905-741-7378,,905-561-5523,,,"Wilkins, Jim",www.BoConPromotions.com,"132 Bow Valley Drive
Hamilton, ON L8E 3J1
Canada",,,
"Kiwi Choice, Inc.",K467937,,,,,ON,"HIGAZY, SHARIF",,http://www.kiwichoice.com/,Supplier,No Description On File,,,(888) 737-5494 x112,,,,,"Higazy, Sharif",www.kiwichoice.com,"1142 Carling Avenue
Ottawa, ON K1Z 7K5
Canada",,,
Cabana Promotions,cabana,,,,,ON,"MAHOMAR, CARLOS",,http://www.cabanapromotions.ca/,Distributor,,,,226-946-7711,,,,,"Mahomar, Carlos",www.cabanapromotions.ca,"760 Cabana Road East
Windsor, ON N9G 1A4
Canada",,,
timely essentials,timely,,,,,ON,"CHEN, SPENCER",spencer@timelyessentials.com,http://www.timelyessentials.com/,Supplier,,,,905-513-9997,,,,,"Chen, Spencer",www.timelyessentials.com,"2800 14th Ave Unit 1
Toronto, ON l3r 0e4
Canada",,,spencer@timelyessentials.com
Infection Control Products,ICP,,,,,ON,"BAJZIK, MARC",,http://www.infectioncontrolproducts.ca/,International Supplier,"Manufacturer and distributor of Hand sanitizers, antibacterial hand soaps, antibacterial surface cleaners and related products. Infection Control Products was established in 2009 as a Canadian Corporation and is located in Mississauga, Ontario. Its corporate vision is to offer a single source for products involved in the control and prevention of infectious diseases. We can help solve your toughest hand and surface cleaning problems and can show you how to promote wellness through proper environmental hy","Infection Control Products Instant Hand Sanitizer,Infection Control Products Anti bacterial hand soap,Infection Control Products Rapid Anti bacterial surface cleaner","Dispensers
Soap
Hand Sanitizers
Health Products
",905-541-3314,,,,,"Bajzik, Marc",www.infectioncontrolpr...,"5040 Maingate Dr
#9
Mississauga, ON L4W 1X5
Canada",,,
Peachtree Candy Company,PEACH,,,,,ON,"HOLDEN, BARRY",barryholden@peachtreecandy.com,http://www.peachtreecandy.com/,Supplier,,,,519-747-9022,,,,,"Holden, Barry",www.peachtreecandy.com,"255 Bathurst Drive
Waterloo, ON N2V 2E4
Canada",,,barryholden@peachtreecandy.com
Gas Pedal Promo,G496497,,,,,ON,"NAGAI, BARBARA",,,Distributor,No Description On File,,,416-569-3325,,,,,"Nagai, Barbara",,"301 Strouds Lane #1
Pickering, ON L1V 7J1
Canada",,,
True North Incentive Group,GreatEx,I am PPAI,,,,ON,"GRANT, ADAM",adam.grant@truenorthig.com,http://www.truenorthig.com/,Distributor,,,,647-284-5573,,,,Adam.grant@truenorthig...,"Grant, Adam",www.truenorthig.com,"9-6975 Meadow Vale Town Centre Cir
Mississauga, ON L5N2V7
Canada",,,adam.grant@truenorthig.com
First Aid Central,FAC2007,I am PPAI,,,,QC,"KOUREBELES, ANTONIOS",tony@FIRSTAIDCENTRAL.COM,http://www.firstaidcentralpromo.com/,International Supplier,"At First Aid Central we're a cut above the rest. Our vast selection of sleek, attractive and innovative designed kits will cover any client’s promotional needs. If you can’t find what you are looking for we can personalize your kit, with over 20 years of experience our First Aid specialists will provide you with a variety of ideas that will suit you or your company’s specific needs.","First Aid Kits,CPR Kits,Sports First AId Kits,Pet First AId Kits","First Aid Kits
Safety Products

",877-767-4333,,,,,"Kourebeles, Antonios",www.firstaidcentralpro...,"3504 Francis Hughes
Ste 2-2442
Laval, QC H7L 5A9
Canada","616 Corporate Way
Ste 2-2442
Valley Cottage, NY 10989
United States","3504 Francis Hughes
Laval, QC H7L 5A9
Canada",tony@FIRSTAIDCENTRAL.COM
RETURNME,RETURN,I am PPAI,,,,QC,"NIAZI, SUHAIL",SNIAZI@RETURNMOI.COM,http://www.returnmepromo.com/,Supplier,"ReturnMoi is a global lost and found recovery service that helps return over 75% of lost items back to their rightful owner. Finders are motivated to return lost items because ReturnMoi’s system is simple, convenient, confidential and rewarding! ReturnMoi’s full range of branded recovery tags are a first in the promotional industry. Through our unique activation process, companies can now gather qualified sales leads, collect market information and generate website traffic. Recovery tags have been designed","Branded recovery tags,Lost and found tags","Gold Products
Kits-Travel
Luggage Tags-Plastic
Sporting Goods-Other
USB Drives
Key Tags-Other
Labels
Mobiles
Stickers
Wallets
Key Tags-Plastic
Luggage Tags-Other
Pet Products
Tags
",800-831-0717,800-831-0717,,,,"Niazi, Suhail",www.ReturnMePromo.com,"181 Labrosse Ave.
Pointe-Claire, QC H9R1A3
Canada","492C Cedar Lane
#187
Teaneck, NJ 07666
United States",,SNIAZI@RETURNMOI.COM
The Sports Vault,Hun2204,I am PPAI,,,,QC,"CHANDAN, ANITA",achandan@thesportsvault.com,http://www.huntercanada.ca/,Distributor,,,,514-767-7637 x213,,,,,"Chandan, Anita",www.huntercanada.ca,"5530 St. Patrick Street
Suite 2204
Montreal, QC H4E 1A8
Canada",,,achandan@thesportsvault.com
DKN Enterprises,DKNE0001,,,,,QC,"KRASNANSKI, MOSHE",,http:,International Distributor,No Description On File,,,514-996-4758,888-342-0111,514-344-6774,,,"Krasnanski, Moshe",,"6355 Mountain Sights
Montreal, QC H3W 2Z4
Canada",,,
KE-AL CANADA,KEAL0001,,,,,QC,"BALLOU, ALEXANDER",,,International Distributor,No Description On File,,,514-745-0866,,514-745-0862,,,"Ballou, Alexander",,"5655 Chemin St-francois
Saint Laurent, QC H4S 1W6
Canada",,,
Stephen L. Goodman Management Ltd.,STEP0001,,,,,QC,"GOODMAN, STEPHEN",,http:,International Distributor,No Description On File,,,514-482-7568,,514-482-7900,,,"Goodman, Stephen",,"4595 Ave. Oxford
Montreal, QC H4A 2Y9
Canada",,,
"Novapro, Inc.",NOVA0001,,,,,QC,"BEAUDOIN, JOHNNIE",,http:,International Distributor,No Description On File,,,514-990-0184,800-441-0184,450-629-0327,,,"Beaudoin, Johnnie",,"1860 De Lugano
Vimont (laval), QC H7M 5Z1
Canada",,,
"Promo Plus Direct Marketing, Inc.",PROM0005,,,,,QC,"HENNELLY, CAROLE",,,International Distributor,No Description On File,,,514-935-3055,,514-935-9660,,,"Hennelly, Carole",,"2264 St. Antoine Ouest #1
Montreal, QC H3J 1A7
Canada",,,
"Publicite K-bec Par L'objet, Inc.",PUBL0001,,,,,QC,"LECOMPTE, MARCEL",,,International Distributor,No Description On File,,,,,,,,"Lecompte, Marcel",,"8196a St Denis
Montreal, QC H2P 2G6
Canada",,,
Publicite St-Hyacinthe Ltee,PUBL0002,,,,,QC,"CORDEAU, NORMAND",pub@promopsh.com,,International Distributor,No Description On File,,,450-773-2689,,450-773-2800,,,"Cordeau, Normand",,"2420 Rue Decelles
St. Hyacinthe, QC J2S 7W7
Canada",,,pub@promopsh.com
"Villemaire Jean-Louis, Inc.",VILL0001,,,,,QC,"LABELLE, PIERRE-LOUISE",,http://www.jlvillemaire.com/,International Distributor,No Description On File,,,(450) 449-2270 disco.,,450-641-2734,,,"Labelle, Pierre-Louise",www.jlvillemaire.com,"1480-f De Coulomb
Boucherville, QC J4B 7K2
Canada",,,
"Blondy Art Luggage, Inc.",blon0001,,,,,QC,"HABERMAN, JOSEPH",tammy.bard@sympatico.ca,http://www.blondypromotions.com/,Supplier,Blondy Manufacturers Custom Bags And Patio Umbrellas.,Blondy Art,"Aprons
Bags-Garment
Bags-Tote
Bottles-Accessories
Gold Products
Leisure Products
Portfolios
Vinyl Products
Automotive Accessories
Bags-Other
Beverage Insulators
Coolers
Holiday Goods
Luggage Tags-Other
School/Collegiate Products
Badge Holders
Bags-Sport
Binders
Environmental Products
Leather Products
Menu Covers
Umbrellas
",514-737-6564,800-361-3180,514-277-4705,,,"Haberman, Joseph",www.blondypromotions.com,"8490 Jeanne Mance
Ste 301
Montreal, QC H2P 2S3
Canada",,,tammy.bard@sympatico.ca
Quebecor World,QUEB0001,,,,,QC,"LAUZON, MICHEL",,http://www.quebecorworld.com/,Supplier,No Description On File,"Graphica Custom Cards,PAL/Vinyl Products","Calendars-Pocket
Playing Cards
Vinyl Products
",781-680-4028,800-567-6980,,,,"Lauzon, Michel",www.quebecorworld.com,"2340 Rue Michelin
Laval, QC H7L 5C3
Canada",,,
"Novasmic, Inc.",NOVA6682,,,,,QC,"BARON, STAN",,http://www.novasmic.com/,Supplier,Manufacturer of exclusive range of quality mouse pads and repositionable all-terrain stickers,"MicrOptic(R), MicroPoint(R),Micropoint 3000(R), Slim NOVA, C.P.S., Magic NOVA, Fix-Max(R), Fix-Max II , Fix-Wear(R), Super, Card'in, Light NOVA, IT Time Pad (R), Ties & Knots (R), Funny-Max (R)","Badges
Calendars-Misc
Computer Products
Labels
Mats-Table
Business Card Products
Coasters-Other
Desk Accessories
Magnets
Neckwear
Business Casual Attire
Coasters-Plastic
Games
Mats-Counter
Puzzles
",514-529-6556,888-819-6556,514-529-1212,,,"Baron, Stan",www.novasmic.com,"1064 Chemin Du Golf
Nuns' Island/lle Des Soeurs
Montreal, QC H3E 1H4
Canada","1064 Chemin Du Golf
Nuns' Island
Montreal, QC H3E 1H4
Canada",,
Boardroom Custom Clothing,214844,I am PPAI,,,,BC,"TROTZUK, MARK",markt@boardroomclothing.com,http://www.boardroomclothing.com/,Supplier,"Boardroom Custom Clothing is a custom manufacturing house for fashion forward technical apparel. ECO apparel is Boardroom's new socially conscious and enviromentally friendly collection. Fabics consist of natural, sustainable and recycled fibers. We offer stock, custom and private labeling services.","Boardroom ECO apparel,Bluesign Collection by Boardroom","Aprons
Business Casual Attire - Mens
Fleece Products - Blankets
Fleece Products - Shirts
Jackets
Sporting Goods-Apparel
Tennis-Apparel
Athletic Wear
Business Casual Attire - Womens
Fleece Products - Jackets
Fulfillment Services
Shirts
Sweaters
Uniforms
Business Casual Attire
Embroidered Items
Fleece Products - Other
Golf-Apparel
Shorts
Sweats
Wearables
",604-718-7808,800-654-4002,604-717-8028,,,"Trotzuk, Mark",www.boardroomclothing.com,"1201 Franklin Street
Vancouver, BC V6A 1L2
Canada",,,markt@boardroomclothing.com
Blue Moose Promotions Group,blumoose,I am PPAI,,,,BC,"CUTAYNE, BRUCE",bruce@bluemoose.ca,http://www.bluemoose.ca/,Distributor,"Through the effective use of promotional products, the Blue Moose Promotions Group assists organizations in: 1. Getting Noticed. 2. Getting Remembered. 3. Getting RESULTS! Promotional products are, in very short, anything with your name, logo, product, service, brand or message on it. It ranges from the common everyday such as clothing, pens, mugs, caps and awards to the most obscure, such as flower seeds, microwave popcorn and java jackets. We like to tell our clients to “be limited onl",,,604-472-2000,,604-472-2001,,,"Cutayne, Bruce",www.BlueMoose.ca,"1674 Connaught Dr.
Port Coquitlam, BC V3C 4G8
Canada",,,bruce@bluemoose.ca
Ultra Digital Printing,WSAR,I am PPAI,,,,BC,"LARSEN, WAYNE",,http://www.winningsolutions.ca/,Distributor,"Digital imaging specialists laser and rotary engraving, pad pressing, sublimation, promotional products, awards, trophies, signs, embroidery and screen printing of apparel.",,,604-533-5505,,604-533-4009,,,"Larsen, Wayne",www.winningsolutions.ca,"20378 Fraser Hwy
Langley, BC V3A4G1
Canada",,,
Imagine That!,IMGNTHT,I am PPAI,,,,BC,"AVEN-WILSON, SONYA",swilson@imaginethatlogo.com,http://www.imaginethatlogo.com/,Distributor,No Description On File,,,250-785-1333,,250-785-1355,,,"Aven-Wilson, Sonya",www.imaginethatlogo.com,"Unit 1845 - 93 Ave
Fort St. John, BC V1J5Z2
Canada",,,swilson@imaginethatlogo.com
Clear Marketing Inc,CMI,I am PPAI,,,,BC,"EVERETT, JAY",jay.everett@clearmarketing.ca,http://www.clearmarketing.ca/,Distributor,"We are in the business of providing quality promotional products in such a way, that we save you time and money. We use a Consultative Approach to make sure we match your needs to the right item; therefore making sure your Return on Investment is maximized. Our strong systems ensure your logo is done right every time – guaranteed.","Pam Everett,Brigetta Baron",,604-590-7177,,,,,"Everett, Jay",www.clearmarketing.ca,"P.O. BOX 12127 Murrayville
Langley, BC V2Y 0M6
Canada","21711 18 AVENUE
LANGLEY, BC V2Z 1P8
Canada",Same As Mailing Address,jay.everett@clearmarketing.ca
CFM Marketing Services Ltd.,sammy1,I am PPAI,,,,BC,"SAMUELL, MIKE",samuell1@telus.net,,Distributor,,,,604-851-5435,,,,,"Samuell, Mike",,"2767 St. Moritz Way
Abbotsford, BC V3G 1C3
Canada",,,samuell1@telus.net
Promo Image Marketing,P657490,I am PPAI,,,,BC,"ESHGHI, TABAN",,,Distributor,No Description On File,,,,,,,,"Eshghi, Taban",,"107 East 3rd Avenue
Vancouver, BC V5T 1C7
Canada",,,
Aspen Promotions Inc.,ASPE0001,,,,,BC,"IRVINE, MARGARET",,http:,International Distributor,No Description On File,,,604-879-2776,,604-879-2722,,,"Irvine, Margaret",,"#404-128 W. 6th Ave.
Vancouver, BC V5Y 1K6
Canada",,,
Beeline Promotions,BEE11647,,,,,BC,"HAYNES, CORENDA",,http:,International Distributor,,,,250-334-3411,,250-897-0793,,,"Haynes, Corenda",,"#1-2937 Kilpatrick Ave
Courtenay, BC V9N 7S7
Canada",,,
Spee-Dee Promotional Products,SPEEDEE,,,,,BC,"GREGSON, NORM",PROMO@SPEEDEE.CA,http://www.speedee.ca/,International Distributor,No Description On File,,,250-562-2414,800-667-9633,250-562-9159,,,"Gregson, Norm",www.speedee.ca,"490 Brunswick St.
Prince George, BC V2L 2B6
Canada",,,PROMO@SPEEDEE.CA
Green Grass Productions Inc.,GREE0006,,,,,BC,"WINKLER, SONJA",,http://www.greengrassinc.com/,International Distributor,No Description On File,,,604-801-6446,,604-801-6496,,,"Winkler, Sonja",www.greengrassinc.com,"1228 Hamilton St
Ste 303
Vancouver, BC V6B 6L2
Canada",,,
Ocean West Marketing Inc.,OWM,,,,,BC,"ROMANCHUK, GORDON",owm@telus.net,http://www.logoedproducts.com/,International Distributor,No Description On File,,,604-258-7344,,604-648-8456,,,"Romanchuk, Gordon",www.logoedproducts.com,"1505 Powell St
Vancouver, BC V5L 5C3
Canada","1955 Mclean Dr
Vancouver, BC V5N 3J7
Canada",,owm@telus.net
Whale Design Resource Inc,Whale215,,,,,BC,"WHALE, KEN",,http:,International Supplier,,,,604-253-6561,,604-253-6563,,,"Whale, Ken",,"1360 E 3rd Ave
Vancouver, BC V5N 5R8
Canada",,,
Val Rene Trade International,VALRENE,,,,,QC,"RENE, VAL",,,Distributor,No Description On File,,,,,,,,"Rene, Val",,"19 Sanctuaire
Gatineau, QC J8R 1T3
Canada",,,
Dominion Blueline Inc.,DOMI0002,,,,,QC,"DEI TIGLI, RALPH",,http://www.bluelineinc.com/,International Supplier,No Description On File,,,450-337-3337,877-315-3337,450-337-1333,,,"Dei tigli, Ralph",www.bluelineinc.com,"230 Foch St
St. Jean-sur-richelieu, QC J3B 2B2
Canada",,,
Turbo Promotions Inc.,TURBP001,,,,,QC,"BLOUIN, JACQUES",,http://www.turbopromotions.com/,International Distributor,,,,418-227-5393,,418-226-0972,,,"Blouin, Jacques",www.turbopromotions.com,"510, 87 E Rue
Saint Georges, QC G7Y 7L9
Canada",,,
Bond Street - Stebco,BONDBAGS,,,,,QC,"MILLER, ANNE",,http://www.bondst.com/,Supplier,"We operate both a USA and a Canadian company to support our customers distribution network. We specialize in rolling computer and catalog cases. Business cases, portable folding carts, writing portfolios, binders and organizers in materials ranging from leather to leather look and ballistics.","Bond Street:,Stebco, Tech-Rite, Travel-Rite","Bags-Tote
Carts
Luggage
Wallets
Briefcases
Cases
Organizers
Business Card Products
Desk Organizers
Portfolios
",514-333-7607,800-361-9670,514-333-8716,,,"Miller, Anne",www.bondst.com,"9255 Henri Bourassa W
Montreal, QC H4S 1X1
Canada",,,
Articles Promaly,ARTI0010,,,,,QC,"PARSON, MARIE-LYNN",,http:,International Distributor,No Description On File,,,450-433-7974,,450-433-6648,,,"Parson, Marie-lynn",,"760 Des Millesiles Quest
Ste Therese-en-hout, QC J7E 4E8
Canada",,,
Abecedarian Inc.,ABECP001,,,,,QC,"COULOMBE, RAY",,,Distributor,No Description On File,,,,,,,,"Coulombe, Ray",,"4626 St Catherine St W
Westmount, QC H3Z 1S3
Canada",,,
Promotion En Detail,PROM8517,,,,,QC,"VESCRO, PETER",,,Distributor,No Description On File,,,514-428-1208,,450-462-9581,,,"Vescro, Peter",,"3765 Beauchemin
Brossard, QC J42 2N2
Canada",,,
Oniga Inc.,ONIG8542,,,,,QC,"ROY, JULIEN",,,Distributor,No Description On File,,,418-877-2424,,418-877-3600,,,"Roy, Julien",,"735, Rue Newton
Quebec, QC G1P 4C4
Canada",,,
H/International Communication,HINT8706,,,,,QC,"CLARK, NORMAN",,http:,International Other,No Description On File,,,514-274-2222,,514-274-4085,,,"Clark, Norman",,"7595 Boul St Laurent
Montreal, QC H2R 1W9
Canada",,,
Elements,ELEMENTS,,,,,QC,"KING, DAVE",,http://www.elementspromo.com/,International Distributor,No Description On File,,,514-344-1443,,514-344-1868,,,"King, Dave",www.elementspromo.com,"6555 Abrams
St-laurent, QC H9S 1X9
Canada",,,
"Agrex Communications Marketing, Inc.",AGRE8779,,,,,QC,"BLAIS, ANDRE",,http:,International Distributor,No Description On File,,,514-363-0851,,514-363-9091,,,"Blais, Andre",,"7708 Edouard St # 300
Lasalle, QC H8P 1T9
Canada",,,
DeZert Concept Marketing Inc,DeZer812,,,,,QC,"OCTEAU, MICHEL",,,Distributor,No Description On File,,,,,,,,"Octeau, Michel",,"500 St-martin Ouest Ste 520
Laval, QC H7M 3Y2
Canada",,,
English Bay Promotions,ENGLI121,,,,,BC,"QUAN, EDWARD",sales@englishbaypromotions.com,http://www.englishbaypromotions.com/,Distributor,,,,604-321-1153,,604-327-0386,,,"Quan, Edward",www.englishbaypromotio...,"6976 Heather St
Vancouver, BC V6P 3P6
Canada",,,sales@englishbaypromotions.com
Cnd Specialty Advertising,9755CND,,,,,BC,"WILLIAMS, COLLEEN",,http://www.cndspecialtyad.com/,Distributor,"Full service promotional and giftware distributor. In-house services include, embroidery, dye sublimation, engraving (both laser and rotary), vinyl cutting, photo reproduction and picture framing.",,,604-574-1577,,604-574-8030,,,"Williams, Colleen",www.cndspecialtyad.com,"16601 - 61st Avenue
Cloverdale, BC V3S 1W2
Canada",,,
Australian Outback Collection Canada Ltd.,AUSTR017,,,,,BC,"MCELWAIN, LORI",,http://www.australianoutback.com/,Supplier,,AUSTRALIAN OUTBACK COLLECTION,"Bags-Other
Caps-Other
Fulfillment Services
Sporting Goods-Apparel
Briefcases
Fleece Products - Jackets
Jackets
Caps-Ball
Fleece Products - Other
Shirts
",604-253-5654,800-267-2622,604-253-5652,,,"McElwain, Lori",www.australianoutback.com,"1090 E Georgia St
Vancouver, BC V6A 2A7
Canada",,,
"Victoria Image Group, Inc.",VICTO014,,,,,BC,"MCNAMARA, ROGER",,http://www.victoriaimagegroup.com/,International Distributor,,,,250-920-2000,,250-920-2045,,,"McNamara, Roger",www.victoriaimagegroup...,"577 Bay St
Victoria, BC V8T 1P5
Canada",,,
Hemptown Clothing Inc.,Hempt798,,,,,BC,"FINNIS, JASON",,http://www.hemptown.com/,Supplier,"Environmentally friendly textile and clothing. Organic Cotton, Hemp, Linen, Soy, Bamboo and blends.",Hemptown,"Aprons
Business Casual Attire - Mens
Environmental Products
Fleece Products - Shirts
Jackets
Shirts
Sporting Goods-Apparel
T-Shirts
Uniforms
Bags-Tote
Business Casual Attire - Womens
Fleece Products - Jackets
Golf-Apparel
Recycling Products
Shorts
Sweaters
Tennis-Apparel
Business Casual Attire
Caps-Ball
Fleece Products - Other
Import-Sourcing Company
Robes
Socks
Sweats
Towels
",604-255-5005,866-436-7869,604-255-5038,,,"Finnis, Jason",www.hemptown.com,"1307 Venables St
Vancouver, BC V5L 2G1
Canada",,,
Arctica Blanket Inc,blanket1,,,,,BC,"ORZEL, WALTER",,http://www.blanket.ca/,Supplier,Blanket and apparel manufacturer serving Promotional Industry in the United States and Canada. The company also proudly represents Monague Native Crafts Ltd in the Promotional Industry by offering beautiful native dream catchers and native crafts made in North America.,"ARCTICA,RUFF","Bags-Other
Blankets
Caps-Other
Fleece Products - Shirts
Jackets
Bags-Sport
Caps-Ball
Fleece Products - Jackets
Hats
Picnic Accessories
Bags-Tote
Caps-Novelty
Fleece Products - Other
Headbands
Scarves
",800-823-6890,,604-270-7827,,,"Orzel, Walter",www.blanket.ca ...,"170 - 12815 Clarke Place
Richmond, BC V6V 2H9
Canada",,,
Odenza Marketing Group Inc,ODENZA,,,,,BC,"TSANG, VERA",,http://www.odenza.com/,Supplier,"Travel Incentives and Rewards, Travel Certificate Fulfilment,",,"Certificates
",604-451-1414,,604-451-0525,,,"Tsang, Vera",www.odenza.com,"4664 Lougheed Hwy
Burnaby, BC V5C 5T5
Canada",,,
Diadem Promotional Imprinters,1405klas,,,,,BC,"KLASSEN, ARLYNN",diadem49@telus.net,http://www.diademimprinters.com/,Distributor,"distributor, typesetting and design, silkscreening and padprinting, banners and signage and decalling of vehicles.",,,604-607-1405,,604-857-0611,,,"Klassen, Arlynn",www.diademimprinters.com,"26354 30a Ave
Aldergrove, BC V4W 2W5
Canada",,,diadem49@telus.net
Aniwear Apparel,Aniwe505,,,,,BC,"DEVENPORT, ANNE",,http://www.aniwear.com/,International Distributor,No Description On File,,,604-264-1887,,604-264-1007,,,"Devenport, Anne",www.aniwear.com,"147-8623 Granville St
Vancover, BC V6P5A2
Canada",,,
Bemberi Marketing,4bem60,,,,,BC,"JONES, SUNETTE",,http://www.bemberimarketing.com/,Distributor,,,,,,,,,"Jones, Sunette",www.bemberimarketing.com,"208-2925 Glen Dr
Coquitlam, BC V3B 7H9
Canada",,,
Adelphe Group,ADELP001,,,,,BC,"ANDERSON, JANIE",,,Distributor,No Description On File,,,,,,,,"Anderson, Janie",,"3656 Blue Jay St
Abbotsford, BC V2T 6R6
Canada",,,
An Advertisting Image,ANADP001,,,,,Bc,"ALLEN, GUY",,,Distributor,No Description On File,,,,,,,,"Allen, Guy",,"Unit 109 - 624 Agnes Street
New Westminster, Bc V3M 1G8
Canada",,,
Cap-abilities Embroidery & Silkscreening Ltd.,CAPAP001,,,,,Bc,"SHORT, KEVAN",,,Distributor,No Description On File,,,250-564-2277,,250-564-8883,,,"Short, Cindy",,"498 Queensway Street
Prince George, Bc V2L 5L4
Canada",,,info@cap-abilities.com
Celebrity Gifts Ltd,CELEP004,,,,,BC,"LAVEROCK, ED",,,Distributor,No Description On File,,,,,,,,"Laverock, Ed",,"1809 Olympus Way
Kelowna, BC V1Z 3H9
Canada",,,
Competitive Edge Sportswear,COMPP015,,,,,Bc,"CATENA, NORM",,,Distributor,No Description On File,,,604-945-6628,,604-945-7407,,,"Catena, Norm",,"25-2458 Pitt River Rd.
Port Coquitlam, Bc V3C 1R9
Canada",,,
Corp Sport Canada Ltd,CORPP002,,,,,Bc,"DAVIS, CAROLYN",,,Distributor,No Description On File,,,,,,,,"Davis, Carolyn",,"1461 Brearley St
White Rock, Bc V4B 5J9
Canada",,,
Corporate Promotional Adv.,CORPP070,,,,,Bc,"DE MAESENEER, GUIDO",,,Distributor,No Description On File,,,,,,,,"De maeseneer, Guido",,"2231 Turner St
Vancover, Bc V5L 2A5
Canada",,,
Falkins Advertising Specialties,FALKP001,,,,,Bc,"FALKINS, BRUCE",,,Distributor,No Description On File,,,250-317-4333,,250-766-5626,,,"Falkins, Bruce",,"17326 Coral Beach Rd.
Lake Country, Bc V4V 1C1
Canada",,,
Brave Promotions,hello,,,,,BC,"MUIR, LANA",,http://www.bravepromotions.com/,Distributor,We are a thoughtful and imaginative promotional products company who specializes in high-end merchandise and apparel without the high end prices. Brave new ideas and brave pricing is how our clients identify us.,,,,,,,,"Muir, Lana",www.bravepromotions.com,"2209 Vancouver Street
Victoria, BC V8T 4A1
Canada",,,
Howe Sound Business Centre,HOWEP002,,,,,Bc,"LEE, SHERI",,,Distributor,No Description On File,,,,,,,,"Lee, Sheri",,"38144 Cleveland Ave.
Box 2089
Squamish, Bc V0N 3G0
Canada",,,
"Incentive Depot, Inc",idi,,,,,BC,"WAIN, CAROL",,http://www.incentivedepot.com/,Distributor,Full Service incentive marketing company,,,,,,,,"Wain, Carol",www.incentivedepot.com,"Box 220, #3 - 2401 Cliffe Ave
Courtenay, BC V9N 2L5
Canada",,,
Impaxia Inc,IMPAXIA,,,,,Bc,"COLAVECCHIO, ANNA",,http://www.impaxia.com/,Distributor,No Description On File,,,,,,,,"Colavecchio, Anna",www.impaxia.com,"7674 Winston St
Burnaby, Bc V5A 2H4
Canada",,,
King Pen,KINGP007,,,,,BC,"PALFENIER, BILL",,,Distributor,No Description On File,,,250-377-1105,,,,,"Palfenier, Bill",,"PO Box 1211 Stn. Main
Kanloops, BC V2C 6H3
Canada",,,
